suburb,postcode,state,state_code
Darwin City,0800,Northern Territory,NT
Jingili,0810,Northern Territory,NT
Leanyer,0812,Northern Territory,NT
Stuart Park,0820,Northern Territory,NT
Rakula,0822,Northern Territory,NT
Berrimah,0828,Northern Territory,NT
Pinelands (NT),0829,Northern Territory,NT
Driver,0830,Northern Territory,NT
Rosebery (NT),0832,Northern Territory,NT
Virginia (NT),0834,Northern Territory,NT
Howard Springs,0835,Northern Territory,NT
Girraween (NT),0836,Northern Territory,NT
Noonamah,0837,Northern Territory,NT
Berry Springs,0838,Northern Territory,NT
Coolalinga,0839,Northern Territory,NT
Dundee Forest,0840,Northern Territory,NT
Darwin River,0841,Northern Territory,NT
Batchelor,0845,Northern Territory,NT
Adelaide River,0846,Northern Territory,NT
Pine Creek (NT),0847,Northern Territory,NT
Katherine South,0850,Northern Territory,NT
Pellew Islands,0852,Northern Territory,NT
Tindal,0853,Northern Territory,NT
Borroloola,0854,Northern Territory,NT
Tennant Creek,0860,Northern Territory,NT
Pamayu,0862,Northern Territory,NT
The Gap (NT),0870,Northern Territory,NT
Anangu Pitjantjatjara Yankunytjatjara,0872,South Australia,SA
Amoonguna,0873,Northern Territory,NT
Undoolya,0874,Northern Territory,NT
Flynn (NT),0875,Northern Territory,NT
Nhulunbuy,0880,Northern Territory,NT
Alyangula,0885,Northern Territory,NT
Jabiru,0886,Northern Territory,NT
Sydney,2000,New South Wales,NSW
Ultimo,2007,New South Wales,NSW
Darlington (Sydney - NSW),2008,New South Wales,NSW
Pyrmont,2009,New South Wales,NSW
Darlinghurst,2010,New South Wales,NSW
Potts Point,2011,New South Wales,NSW
Alexandria,2015,New South Wales,NSW
Redfern,2016,New South Wales,NSW
Zetland,2017,New South Wales,NSW
Rosebery (NSW),2018,New South Wales,NSW
Botany,2019,New South Wales,NSW
Mascot,2020,New South Wales,NSW
Paddington (NSW),2021,New South Wales,NSW
Bondi Junction,2022,New South Wales,NSW
Bellevue Hill,2023,New South Wales,NSW
Waverley (NSW),2024,New South Wales,NSW
Woollahra,2025,New South Wales,NSW
Bondi Beach,2026,New South Wales,NSW
Edgecliff,2027,New South Wales,NSW
Double Bay,2028,New South Wales,NSW
Rose Bay (NSW),2029,New South Wales,NSW
Dover Heights,2030,New South Wales,NSW
Randwick,2031,New South Wales,NSW
Kingsford (NSW),2032,New South Wales,NSW
Kensington (NSW),2033,New South Wales,NSW
Coogee (NSW),2034,New South Wales,NSW
Maroubra,2035,New South Wales,NSW
Matraville,2036,New South Wales,NSW
Glebe (NSW),2037,New South Wales,NSW
Annandale (NSW),2038,New South Wales,NSW
Rozelle,2039,New South Wales,NSW
Leichhardt (NSW),2040,New South Wales,NSW
Birchgrove,2041,New South Wales,NSW
Newtown (NSW),2042,New South Wales,NSW
Erskineville,2043,New South Wales,NSW
St Peters (NSW),2044,New South Wales,NSW
Haberfield,2045,New South Wales,NSW
Chiswick,2046,New South Wales,NSW
Drummoyne,2047,New South Wales,NSW
Stanmore (NSW),2048,New South Wales,NSW
Petersham,2049,New South Wales,NSW
Camperdown (NSW),2050,New South Wales,NSW
North Sydney,2060,New South Wales,NSW
Kirribilli,2061,New South Wales,NSW
Cammeray,2062,New South Wales,NSW
Northbridge (NSW),2063,New South Wales,NSW
Artarmon,2064,New South Wales,NSW
Greenwich,2065,New South Wales,NSW
Lane Cove North,2066,New South Wales,NSW
Chatswood,2067,New South Wales,NSW
North Willoughby,2068,New South Wales,NSW
Roseville,2069,New South Wales,NSW
Lindfield,2070,New South Wales,NSW
East Killara,2071,New South Wales,NSW
Gordon (NSW),2072,New South Wales,NSW
Pymble,2073,New South Wales,NSW
South Turramurra,2074,New South Wales,NSW
St Ives (NSW),2075,New South Wales,NSW
North Wahroonga,2076,New South Wales,NSW
Hornsby,2077,New South Wales,NSW
Mount Colah,2079,New South Wales,NSW
Mount Kuring-Gai,2080,New South Wales,NSW
Berowra,2081,New South Wales,NSW
Berowra Waters,2082,New South Wales,NSW
Brooklyn (NSW),2083,New South Wales,NSW
Duffys Forest,2084,New South Wales,NSW
Belrose,2085,New South Wales,NSW
Frenchs Forest,2086,New South Wales,NSW
Forestville (NSW),2087,New South Wales,NSW
Mosman,2088,New South Wales,NSW
Kurraba Point,2089,New South Wales,NSW
Cremorne Point,2090,New South Wales,NSW
Seaforth (NSW),2092,New South Wales,NSW
Balgowlah,2093,New South Wales,NSW
Fairlight,2094,New South Wales,NSW
Manly (NSW),2095,New South Wales,NSW
Curl Curl,2096,New South Wales,NSW
Collaroy (NSW),2097,New South Wales,NSW
Dee Why,2099,New South Wales,NSW
Allambie Heights,2100,New South Wales,NSW
North Narrabeen,2101,New South Wales,NSW
Warriewood,2102,New South Wales,NSW
Mona Vale,2103,New South Wales,NSW
Bayview (NSW),2104,New South Wales,NSW
Church Point,2105,New South Wales,NSW
Newport (NSW),2106,New South Wales,NSW
Bilgola Beach,2107,New South Wales,NSW
Palm Beach (NSW),2108,New South Wales,NSW
Hunters Hill,2110,New South Wales,NSW
Gladesville,2111,New South Wales,NSW
Ryde,2112,New South Wales,NSW
North Ryde,2113,New South Wales,NSW
West Ryde,2114,New South Wales,NSW
Ermington,2115,New South Wales,NSW
Rydalmere,2116,New South Wales,NSW
Dundas Valley,2117,New South Wales,NSW
Carlingford,2118,New South Wales,NSW
Beecroft,2119,New South Wales,NSW
Thornleigh,2120,New South Wales,NSW
Epping (NSW),2121,New South Wales,NSW
Eastwood (NSW),2122,New South Wales,NSW
West Pennant Hills,2125,New South Wales,NSW
Cherrybrook,2126,New South Wales,NSW
Newington (NSW),2127,New South Wales,NSW
Silverwater (Parramatta - NSW),2128,New South Wales,NSW
Summer Hill (Inner West - NSW),2130,New South Wales,NSW
Ashfield (NSW),2131,New South Wales,NSW
Croydon (NSW),2132,New South Wales,NSW
Croydon Park (NSW),2133,New South Wales,NSW
Burwood (NSW),2134,New South Wales,NSW
Strathfield (NSW),2135,New South Wales,NSW
Strathfield South,2136,New South Wales,NSW
Cabarita (NSW),2137,New South Wales,NSW
Rhodes,2138,New South Wales,NSW
Homebush (NSW),2140,New South Wales,NSW
Lidcombe,2141,New South Wales,NSW
Clyde (NSW),2142,New South Wales,NSW
Potts Hill,2143,New South Wales,NSW
Auburn (NSW),2144,New South Wales,NSW
Wentworthville,2145,New South Wales,NSW
Toongabbie (NSW),2146,New South Wales,NSW
Seven Hills (NSW),2147,New South Wales,NSW
Blacktown,2148,New South Wales,NSW
Harris Park,2150,New South Wales,NSW
North Parramatta,2151,New South Wales,NSW
Northmead,2152,New South Wales,NSW
Baulkham Hills,2153,New South Wales,NSW
Castle Hill (NSW),2154,New South Wales,NSW
North Kellyville,2155,New South Wales,NSW
Kenthurst,2156,New South Wales,NSW
Glenorie,2157,New South Wales,NSW
Dural (Hornsby - NSW),2158,New South Wales,NSW
Arcadia (NSW),2159,New South Wales,NSW
Merrylands,2160,New South Wales,NSW
Yennora,2161,New South Wales,NSW
Chester Hill,2162,New South Wales,NSW
Villawood,2163,New South Wales,NSW
Smithfield (NSW),2164,New South Wales,NSW
Fairfield East,2165,New South Wales,NSW
Canley Heights,2166,New South Wales,NSW
Glenfield (NSW),2167,New South Wales,NSW
Green Valley (NSW),2168,New South Wales,NSW
Casula,2170,New South Wales,NSW
West Hoxton,2171,New South Wales,NSW
Pleasure Point,2172,New South Wales,NSW
Wattle Grove (NSW),2173,New South Wales,NSW
Edmondson Park,2174,New South Wales,NSW
Horsley Park,2175,New South Wales,NSW
Edensor Park,2176,New South Wales,NSW
Bonnyrigg,2177,New South Wales,NSW
Mount Vernon,2178,New South Wales,NSW
Austral,2179,New South Wales,NSW
Greenacre,2190,New South Wales,NSW
Belfield,2191,New South Wales,NSW
Belmore,2192,New South Wales,NSW
Hurlstone Park,2193,New South Wales,NSW
Campsie,2194,New South Wales,NSW
Wiley Park,2195,New South Wales,NSW
Punchbowl (Canterbury-Bankstown - NSW),2196,New South Wales,NSW
Bass Hill,2197,New South Wales,NSW
Georges Hall,2198,New South Wales,NSW
Yagoona,2199,New South Wales,NSW
Bankstown,2200,New South Wales,NSW
Dulwich Hill,2203,New South Wales,NSW
Marrickville,2204,New South Wales,NSW
Arncliffe,2205,New South Wales,NSW
Earlwood,2206,New South Wales,NSW
Bexley North,2207,New South Wales,NSW
Kingsgrove,2208,New South Wales,NSW
Narwee,2209,New South Wales,NSW
Peakhurst Heights,2210,New South Wales,NSW
Padstow,2211,New South Wales,NSW
Revesby,2212,New South Wales,NSW
Picnic Point,2213,New South Wales,NSW
Milperra,2214,New South Wales,NSW
Rockdale,2216,New South Wales,NSW
Kogarah Bay,2217,New South Wales,NSW
Carlton (NSW),2218,New South Wales,NSW
Sandringham (NSW),2219,New South Wales,NSW
Hurstville,2220,New South Wales,NSW
South Hurstville,2221,New South Wales,NSW
Penshurst (NSW),2222,New South Wales,NSW
Mortdale,2223,New South Wales,NSW
Sylvania Waters,2224,New South Wales,NSW
Oyster Bay,2225,New South Wales,NSW
Como (NSW),2226,New South Wales,NSW
Gymea Bay,2227,New South Wales,NSW
Gymea Bay,2228,New South Wales,NSW
Caringbah,2229,New South Wales,NSW
Burraneer,2230,New South Wales,NSW
Kurnell,2231,New South Wales,NSW
Sutherland (NSW),2232,New South Wales,NSW
Heathcote (NSW),2233,New South Wales,NSW
Barden Ridge,2234,New South Wales,NSW
Narara,2250,New South Wales,NSW
Avoca Beach,2251,New South Wales,NSW
Woy Woy,2256,New South Wales,NSW
Ettalong Beach,2257,New South Wales,NSW
Ourimbah,2258,New South Wales,NSW
Jilliby,2259,New South Wales,NSW
Terrigal,2260,New South Wales,NSW
Bateau Bay,2261,New South Wales,NSW
Buff Point,2262,New South Wales,NSW
Lake Haven,2263,New South Wales,NSW
Mandalong,2264,New South Wales,NSW
Cooranbong,2265,New South Wales,NSW
Wangi Wangi,2267,New South Wales,NSW
Barnsley,2278,New South Wales,NSW
Floraville,2280,New South Wales,NSW
Swansea (NSW),2281,New South Wales,NSW
Warners Bay,2282,New South Wales,NSW
Bolton Point,2283,New South Wales,NSW
Speers Point,2284,New South Wales,NSW
Macquarie Hills,2285,New South Wales,NSW
Holmesville,2286,New South Wales,NSW
Fletcher (NSW),2287,New South Wales,NSW
Adamstown Heights,2289,New South Wales,NSW
Whitebridge,2290,New South Wales,NSW
Merewether,2291,New South Wales,NSW
Broadmeadow,2292,New South Wales,NSW
Wickham (NSW),2293,New South Wales,NSW
Carrington (Newcastle - NSW),2294,New South Wales,NSW
Stockton (NSW),2295,New South Wales,NSW
Islington,2296,New South Wales,NSW
Tighes Hill,2297,New South Wales,NSW
Waratah West,2298,New South Wales,NSW
North Lambton,2299,New South Wales,NSW
Newcastle,2300,New South Wales,NSW
Newcastle West,2302,New South Wales,NSW
Hamilton (NSW),2303,New South Wales,NSW
Mayfield (Newcastle - NSW),2304,New South Wales,NSW
New Lambton,2305,New South Wales,NSW
Windale,2306,New South Wales,NSW
Shortland,2307,New South Wales,NSW
Callaghan,2308,New South Wales,NSW
Carrabolla,2311,New South Wales,NSW
Nabiac,2312,New South Wales,NSW
Corlette,2315,New South Wales,NSW
Anna Bay,2316,New South Wales,NSW
Soldiers Point,2317,New South Wales,NSW
Medowie,2318,New South Wales,NSW
Lemon Tree Passage,2319,New South Wales,NSW
Telarah,2320,New South Wales,NSW
Gillieston Heights,2321,New South Wales,NSW
Tarro,2322,New South Wales,NSW
East Maitland,2323,New South Wales,NSW
Swan Bay (Port Stephens - NSW),2324,New South Wales,NSW
Cessnock,2325,New South Wales,NSW
Weston (NSW),2326,New South Wales,NSW
Stanford Merthyr,2327,New South Wales,NSW
Denman,2328,New South Wales,NSW
Cassilis (NSW),2329,New South Wales,NSW
Singleton (NSW),2330,New South Wales,NSW
Singleton Military Area,2331,New South Wales,NSW
Edderton,2333,New South Wales,NSW
Greta (NSW),2334,New South Wales,NSW
Branxton,2335,New South Wales,NSW
Aberdeen (NSW),2336,New South Wales,NSW
Scone,2337,New South Wales,NSW
Murrurundi,2338,New South Wales,NSW
Cattle Creek (NSW),2339,New South Wales,NSW
East Tamworth,2340,New South Wales,NSW
Werris Creek,2341,New South Wales,NSW
Currabubula,2342,New South Wales,NSW
Bundella,2343,New South Wales,NSW
Duri,2344,New South Wales,NSW
Attunga,2345,New South Wales,NSW
Manilla,2346,New South Wales,NSW
Red Hill (Tamworth Regional - NSW),2347,New South Wales,NSW
Armidale,2350,New South Wales,NSW
Kootingal,2352,New South Wales,NSW
Moonbi,2353,New South Wales,NSW
Yarrowitch,2354,New South Wales,NSW
Watsons Creek (NSW),2355,New South Wales,NSW
Gwabegar,2356,New South Wales,NSW
Coonabarabran,2357,New South Wales,NSW
Arding,2358,New South Wales,NSW
Bundarra,2359,New South Wales,NSW
Copeton,2360,New South Wales,NSW
Ashford (NSW),2361,New South Wales,NSW
Guyra,2365,New South Wales,NSW
Tingha,2369,New South Wales,NSW
Glen Innes,2370,New South Wales,NSW
Deepwater (NSW),2371,New South Wales,NSW
Timbarra (NSW),2372,New South Wales,NSW
Mullaley,2379,New South Wales,NSW
Gunnedah,2380,New South Wales,NSW
Curlewis (NSW),2381,New South Wales,NSW
Boggabri,2382,New South Wales,NSW
Burren Junction,2386,New South Wales,NSW
Rowena,2387,New South Wales,NSW
Wee Waa,2388,New South Wales,NSW
Back Creek (Gwydir - NSW),2390,New South Wales,NSW
Binnaway,2395,New South Wales,NSW
Baradine,2396,New South Wales,NSW
Bellata,2397,New South Wales,NSW
Gurley,2398,New South Wales,NSW
Pallamallawa,2399,New South Wales,NSW
Moree,2400,New South Wales,NSW
Gravesend,2401,New South Wales,NSW
Warialda Rail,2402,New South Wales,NSW
Myall Creek,2403,New South Wales,NSW
Bingara,2404,New South Wales,NSW
Garah,2405,New South Wales,NSW
Mungindi (Qld),2406,Queensland,QLD
North Star,2408,New South Wales,NSW
Boggabilla,2409,New South Wales,NSW
Yetman,2410,New South Wales,NSW
Croppa Creek,2411,New South Wales,NSW
Stroud Road,2415,New South Wales,NSW
Hilldale,2420,New South Wales,NSW
Vacy,2421,New South Wales,NSW
Gloucester,2422,New South Wales,NSW
Markwell,2423,New South Wales,NSW
Cells River,2424,New South Wales,NSW
Stroud,2425,New South Wales,NSW
Coopernook,2426,New South Wales,NSW
Harrington,2427,New South Wales,NSW
Wallis Lake,2428,New South Wales,NSW
Marlee,2429,New South Wales,NSW
Taree,2430,New South Wales,NSW
South West Rocks,2431,New South Wales,NSW
Kendall,2439,New South Wales,NSW
South Kempsey,2440,New South Wales,NSW
Stuarts Point,2441,New South Wales,NSW
West Haven,2443,New South Wales,NSW
Port Macquarie,2444,New South Wales,NSW
Bonny Hills,2445,New South Wales,NSW
Beechwood,2446,New South Wales,NSW
Gumma,2447,New South Wales,NSW
Valla,2448,New South Wales,NSW
Bowraville,2449,New South Wales,NSW
Coffs Harbour,2450,New South Wales,NSW
Boambee East,2452,New South Wales,NSW
Megan,2453,New South Wales,NSW
Mylestom,2454,New South Wales,NSW
Urunga,2455,New South Wales,NSW
Woolgoolga,2456,New South Wales,NSW
Grafton,2460,New South Wales,NSW
Pillar Valley,2462,New South Wales,NSW
Gulmarrad,2463,New South Wales,NSW
Yamba (NSW),2464,New South Wales,NSW
Harwood,2465,New South Wales,NSW
Iluka (NSW),2466,New South Wales,NSW
Chatsworth (NSW),2469,New South Wales,NSW
Casino,2470,New South Wales,NSW
Greenridge,2471,New South Wales,NSW
Woodburn (Richmond Valley - NSW),2472,New South Wales,NSW
Evans Head,2473,New South Wales,NSW
Kyogle,2474,New South Wales,NSW
Urbenville,2475,New South Wales,NSW
Brumby Plains,2476,New South Wales,NSW
Wollongbar,2477,New South Wales,NSW
Lennox Head,2478,New South Wales,NSW
Bangalow,2479,New South Wales,NSW
South Lismore,2480,New South Wales,NSW
Byron Bay,2481,New South Wales,NSW
Mullumbimby,2482,New South Wales,NSW
Brunswick Heads,2483,New South Wales,NSW
South Murwillumbah,2484,New South Wales,NSW
Tweed Heads,2485,New South Wales,NSW
Tweed Heads South,2486,New South Wales,NSW
Casuarina (NSW),2487,New South Wales,NSW
Bogangar,2488,New South Wales,NSW
Pottsville,2489,New South Wales,NSW
Tumbulgum,2490,New South Wales,NSW
Wollongong,2500,New South Wales,NSW
Primbee,2502,New South Wales,NSW
Port Kembla,2505,New South Wales,NSW
Berkeley,2506,New South Wales,NSW
Helensburgh,2508,New South Wales,NSW
Thirroul,2515,New South Wales,NSW
Bulli,2516,New South Wales,NSW
Woonona,2517,New South Wales,NSW
East Corrimal,2518,New South Wales,NSW
Fairy Meadow,2519,New South Wales,NSW
Figtree,2525,New South Wales,NSW
Unanderra,2526,New South Wales,NSW
Albion Park,2527,New South Wales,NSW
Warilla,2528,New South Wales,NSW
Shellharbour,2529,New South Wales,NSW
Wongawilli,2530,New South Wales,NSW
Kiama,2533,New South Wales,NSW
Gerringong,2534,New South Wales,NSW
Far Meadow,2535,New South Wales,NSW
Batehaven,2536,New South Wales,NSW
Tuross Head,2537,New South Wales,NSW
Milton (NSW),2538,New South Wales,NSW
Burrill Lake,2539,New South Wales,NSW
Jervis Bay,2540,Other Territories,
Nowra,2541,New South Wales,NSW
Eurobodalla,2545,New South Wales,NSW
Bermagui,2546,New South Wales,NSW
Tura Beach,2548,New South Wales,NSW
Lochiel (NSW),2549,New South Wales,NSW
Bemboka,2550,New South Wales,NSW
Eden,2551,New South Wales,NSW
Badgerys Creek,2555,New South Wales,NSW
Bringelly,2556,New South Wales,NSW
Gledswood Hills,2557,New South Wales,NSW
Kearns,2558,New South Wales,NSW
Claymore,2559,New South Wales,NSW
Bradbury (NSW),2560,New South Wales,NSW
Menangle Park,2563,New South Wales,NSW
Macquarie Fields,2564,New South Wales,NSW
Ingleburn,2565,New South Wales,NSW
Minto,2566,New South Wales,NSW
Harrington Park,2567,New South Wales,NSW
Menangle,2568,New South Wales,NSW
Douglas Park,2569,New South Wales,NSW
Oran Park,2570,New South Wales,NSW
Buxton (NSW),2571,New South Wales,NSW
Thirlmere,2572,New South Wales,NSW
Tahmoor,2573,New South Wales,NSW
Bargo,2574,New South Wales,NSW
Willow Vale (Wingecarribee - NSW),2575,New South Wales,NSW
Bowral,2576,New South Wales,NSW
Robertson (NSW),2577,New South Wales,NSW
Bundanoon (NSW),2578,New South Wales,NSW
Wingello,2579,New South Wales,NSW
Carrick (NSW),2580,New South Wales,NSW
Breadalbane (NSW),2581,New South Wales,NSW
Murrumbateman,2582,New South Wales,NSW
Rugby,2583,New South Wales,NSW
Binalong,2584,New South Wales,NSW
Galong,2585,New South Wales,NSW
Boorowa,2586,New South Wales,NSW
Harden,2587,New South Wales,NSW
Wallendbeen,2588,New South Wales,NSW
Cootamundra,2590,New South Wales,NSW
Young,2594,New South Wales,NSW
Parkes (ACT),2600,Australian Capital Territory,ACT
City,2601,Australian Capital Territory,ACT
O'Connor (ACT),2602,Australian Capital Territory,ACT
Red Hill (ACT),2603,Australian Capital Territory,ACT
Kingston (ACT),2604,Australian Capital Territory,ACT
Garran,2605,Australian Capital Territory,ACT
Phillip,2606,Australian Capital Territory,ACT
Pearce,2607,Australian Capital Territory,ACT
ACT Remainder - Majura,2609,Australian Capital Territory,ACT
Brindabella,2611,New South Wales,NSW
Campbell,2612,Australian Capital Territory,ACT
Scullin,2614,Australian Capital Territory,ACT
Florey,2615,Australian Capital Territory,ACT
Evatt,2617,Australian Capital Territory,ACT
Springrange,2618,New South Wales,NSW
Jerrabomberra,2619,New South Wales,NSW
Oaks Estate,2620,Australian Capital Territory,ACT
Rossi,2621,New South Wales,NSW
Monga,2622,New South Wales,NSW
Captains Flat,2623,New South Wales,NSW
Burrungubugge,2624,New South Wales,NSW
Thredbo,2625,New South Wales,NSW
Bumbalong,2626,New South Wales,NSW
Jindabyne,2627,New South Wales,NSW
Braemar Bay,2628,New South Wales,NSW
Anglers Reach,2629,New South Wales,NSW
Cooma (NSW),2630,New South Wales,NSW
Nimmitabel,2631,New South Wales,NSW
Cathcart (NSW),2632,New South Wales,NSW
Delegate,2633,New South Wales,NSW
Thurgoona,2640,New South Wales,NSW
Lavington,2641,New South Wales,NSW
Jingellic,2642,New South Wales,NSW
Howlong,2643,New South Wales,NSW
Holbrook,2644,New South Wales,NSW
Urana,2645,New South Wales,NSW
Savernake,2646,New South Wales,NSW
Mulwala,2647,New South Wales,NSW
Scotia,2648,New South Wales,NSW
Nurenmerenmong,2649,New South Wales,NSW
Ashmont,2650,New South Wales,NSW
Forest Hill (NSW),2651,New South Wales,NSW
Matong,2652,New South Wales,NSW
Tumbarumba,2653,New South Wales,NSW
The Rock,2655,New South Wales,NSW
Lockhart,2656,New South Wales,NSW
Pleasant Hills,2658,New South Wales,NSW
Walla Walla,2659,New South Wales,NSW
Morven (Greater Hume Shire - NSW),2660,New South Wales,NSW
Kapooka,2661,New South Wales,NSW
Junee,2663,New South Wales,NSW
Ariah Park,2665,New South Wales,NSW
Grogan,2666,New South Wales,NSW
Barmedman,2668,New South Wales,NSW
Rankins Springs,2669,New South Wales,NSW
West Wyalong,2671,New South Wales,NSW
Lake Cargelligo,2672,New South Wales,NSW
Hillston,2675,New South Wales,NSW
Charles Sturt University,2678,New South Wales,NSW
Beelbangera,2680,New South Wales,NSW
Yenda (NSW),2681,New South Wales,NSW
Gillenbah,2700,New South Wales,NSW
Coolamon,2701,New South Wales,NSW
Ganmain,2702,New South Wales,NSW
Yanco,2703,New South Wales,NSW
Leeton,2705,New South Wales,NSW
Darlington Point,2706,New South Wales,NSW
Coleambally,2707,New South Wales,NSW
Deniliquin,2710,New South Wales,NSW
Hay (NSW),2711,New South Wales,NSW
Boomanoomana,2712,New South Wales,NSW
Finley,2713,New South Wales,NSW
Tocumwal,2714,New South Wales,NSW
Balranald,2715,New South Wales,NSW
Jerilderie,2716,New South Wales,NSW
Dareton,2717,New South Wales,NSW
Tumut,2720,New South Wales,NSW
Bland,2721,New South Wales,NSW
South Gundagai,2722,New South Wales,NSW
Stockinbingal,2725,New South Wales,NSW
Jugiong,2726,New South Wales,NSW
Adjungbilly,2727,New South Wales,NSW
Ellerslie (Snowy Valleys - NSW),2729,New South Wales,NSW
Batlow,2730,New South Wales,NSW
Moama,2731,New South Wales,NSW
Gonn,2732,New South Wales,NSW
Niemur,2733,New South Wales,NSW
Moolpa,2734,New South Wales,NSW
Koraleigh,2735,New South Wales,NSW
Tooleybuc,2736,New South Wales,NSW
Euston,2737,New South Wales,NSW
Gol Gol,2738,New South Wales,NSW
Buronga,2739,New South Wales,NSW
Glenmore Park,2745,New South Wales,NSW
Werrington County,2747,New South Wales,NSW
Orchard Hills,2748,New South Wales,NSW
Cranebrook,2749,New South Wales,NSW
Emu Plains,2750,New South Wales,NSW
Silverdale (NSW),2752,New South Wales,NSW
Grose Vale,2753,New South Wales,NSW
North Richmond,2754,New South Wales,NSW
Windsor (NSW),2756,New South Wales,NSW
Kurmond,2757,New South Wales,NSW
Kurrajong,2758,New South Wales,NSW
St Clair (Penrith - NSW),2759,New South Wales,NSW
Colyton,2760,New South Wales,NSW
Plumpton (NSW),2761,New South Wales,NSW
Tallawong,2762,New South Wales,NSW
Quakers Hill,2763,New South Wales,NSW
Riverstone,2765,New South Wales,NSW
Rooty Hill,2766,New South Wales,NSW
Doonside,2767,New South Wales,NSW
Glenwood (NSW),2768,New South Wales,NSW
The Ponds,2769,New South Wales,NSW
Mount Druitt,2770,New South Wales,NSW
Glenbrook,2773,New South Wales,NSW
Warrimoo,2774,New South Wales,NSW
Laughtondale,2775,New South Wales,NSW
Faulconbridge,2776,New South Wales,NSW
Springwood (NSW),2777,New South Wales,NSW
Linden (NSW),2778,New South Wales,NSW
Hazelbrook,2779,New South Wales,NSW
Katoomba,2780,New South Wales,NSW
Wentworth Falls,2782,New South Wales,NSW
Lawson (NSW),2783,New South Wales,NSW
Bullaburra,2784,New South Wales,NSW
Blackheath,2785,New South Wales,NSW
Mount Victoria,2786,New South Wales,NSW
Oberon,2787,New South Wales,NSW
Blackmans Flat,2790,New South Wales,NSW
Carcoar,2791,New South Wales,NSW
Mandurama,2792,New South Wales,NSW
Woodstock (Cowra - NSW),2793,New South Wales,NSW
Bumbaldry,2794,New South Wales,NSW
Kelso (NSW),2795,New South Wales,NSW
Lyndhurst (Blayney - NSW),2797,New South Wales,NSW
Millthorpe,2798,New South Wales,NSW
Neville,2799,New South Wales,NSW
Lucknow (NSW),2800,New South Wales,NSW
Bendick Murrell,2803,New South Wales,NSW
Canowindra,2804,New South Wales,NSW
Gooloogong,2805,New South Wales,NSW
Eugowra,2806,New South Wales,NSW
Koorawatha,2807,New South Wales,NSW
Wyangala,2808,New South Wales,NSW
Greenethorpe,2809,New South Wales,NSW
Grenfell,2810,New South Wales,NSW
Tooraweenah,2817,New South Wales,NSW
Benolong,2818,New South Wales,NSW
Montefiores,2820,New South Wales,NSW
Narromine,2821,New South Wales,NSW
Eumungerie,2822,New South Wales,NSW
Trangie,2823,New South Wales,NSW
Warren,2824,New South Wales,NSW
Nyngan,2825,New South Wales,NSW
Nevertire,2826,New South Wales,NSW
Merrigal,2827,New South Wales,NSW
Gulargambone,2828,New South Wales,NSW
Coonamble,2829,New South Wales,NSW
Dubbo,2830,New South Wales,NSW
The Marra,2831,New South Wales,NSW
Walgett,2832,New South Wales,NSW
Collarenebri,2833,New South Wales,NSW
Lightning Ridge,2834,New South Wales,NSW
Sandy Creek (Cobar - NSW),2835,New South Wales,NSW
Wilcannia,2836,New South Wales,NSW
Goodooga,2838,New South Wales,NSW
Weilmoringle,2839,New South Wales,NSW
Tilpa,2840,New South Wales,NSW
Mendooran,2842,New South Wales,NSW
Coolah,2843,New South Wales,NSW
Dunedoo,2844,New South Wales,NSW
Wallerawang,2845,New South Wales,NSW
Glen Davis,2846,New South Wales,NSW
Portland (NSW),2847,New South Wales,NSW
Clandulla,2848,New South Wales,NSW
Murrumbo,2849,New South Wales,NSW
Mudgee,2850,New South Wales,NSW
Gulgong,2852,New South Wales,NSW
Cudal,2864,New South Wales,NSW
Manildra,2865,New South Wales,NSW
Molong,2866,New South Wales,NSW
Cumnock,2867,New South Wales,NSW
Obley,2868,New South Wales,NSW
Peak Hill (NSW),2869,New South Wales,NSW
Parkes (NSW),2870,New South Wales,NSW
Forbes (NSW),2871,New South Wales,NSW
Tottenham (NSW),2873,New South Wales,NSW
Tullamore,2874,New South Wales,NSW
Ootha,2875,New South Wales,NSW
Bogan Gate,2876,New South Wales,NSW
Condobolin,2877,New South Wales,NSW
Ivanhoe (NSW),2878,New South Wales,NSW
Menindee,2879,New South Wales,NSW
Broken Hill,2880,New South Wales,NSW
Lord Howe Island,2898,New South Wales,NSW
Norfolk Island,2899,Other Territories,
Greenway,2900,Australian Capital Territory,ACT
Kambah,2902,Australian Capital Territory,ACT
Oxley (ACT),2903,Australian Capital Territory,ACT
Fadden,2904,Australian Capital Territory,ACT
Bonython,2905,Australian Capital Territory,ACT
Conder,2906,Australian Capital Territory,ACT
Crace,2911,Australian Capital Territory,ACT
Gungahlin,2912,Australian Capital Territory,ACT
Ngunnawal,2913,Australian Capital Territory,ACT
Throsby,2914,Australian Capital Territory,ACT
Melbourne,3000,Victoria,VIC
East Melbourne,3002,Victoria,VIC
West Melbourne,3003,Victoria,VIC
Melbourne,3004,Victoria,VIC
Southbank,3006,Victoria,VIC
Docklands,3008,Victoria,VIC
Seddon (Vic.),3011,Victoria,VIC
Maidstone,3012,Victoria,VIC
Yarraville,3013,Victoria,VIC
Spotswood,3015,Victoria,VIC
Williamstown (Vic.),3016,Victoria,VIC
Seaholme,3018,Victoria,VIC
Braybrook,3019,Victoria,VIC
Sunshine West,3020,Victoria,VIC
St Albans (Vic.),3021,Victoria,VIC
Ardeer,3022,Victoria,VIC
Deer Park,3023,Victoria,VIC
Manor Lakes,3024,Victoria,VIC
Altona North,3025,Victoria,VIC
Derrimut,3026,Victoria,VIC
Williams Landing,3027,Victoria,VIC
Laverton (Vic.),3028,Victoria,VIC
Hoppers Crossing,3029,Victoria,VIC
Point Cook,3030,Victoria,VIC
Flemington,3031,Victoria,VIC
Maribyrnong,3032,Victoria,VIC
Keilor East,3033,Victoria,VIC
Avondale Heights,3034,Victoria,VIC
Keilor North,3036,Victoria,VIC
Taylors Hill,3037,Victoria,VIC
Taylors Lakes,3038,Victoria,VIC
Moonee Ponds,3039,Victoria,VIC
Essendon,3040,Victoria,VIC
Essendon North,3041,Victoria,VIC
Keilor Park,3042,Victoria,VIC
Gowanbrae,3043,Victoria,VIC
Pascoe Vale,3044,Victoria,VIC
Melbourne Airport,3045,Victoria,VIC
Glenroy (Vic.),3046,Victoria,VIC
Broadmeadows (Vic.),3047,Victoria,VIC
Meadow Heights,3048,Victoria,VIC
Westmeadows,3049,Victoria,VIC
North Melbourne,3051,Victoria,VIC
Parkville (Vic.),3052,Victoria,VIC
Carlton (Vic.),3053,Victoria,VIC
Carlton North,3054,Victoria,VIC
Brunswick West,3055,Victoria,VIC
Brunswick (Vic.),3056,Victoria,VIC
Brunswick East,3057,Victoria,VIC
Coburg,3058,Victoria,VIC
Greenvale (Vic.),3059,Victoria,VIC
Fawkner,3060,Victoria,VIC
Campbellfield,3061,Victoria,VIC
Somerton (Vic.),3062,Victoria,VIC
Oaklands Junction,3063,Victoria,VIC
Mickleham,3064,Victoria,VIC
Fitzroy (Vic.),3065,Victoria,VIC
Collingwood (Vic.),3066,Victoria,VIC
Abbotsford (Vic.),3067,Victoria,VIC
Fitzroy North,3068,Victoria,VIC
Northcote,3070,Victoria,VIC
Thornbury,3071,Victoria,VIC
Preston (Vic.),3072,Victoria,VIC
Reservoir (Vic.),3073,Victoria,VIC
Thomastown,3074,Victoria,VIC
Lalor,3075,Victoria,VIC
Epping (Vic.),3076,Victoria,VIC
Fairfield (Vic.),3078,Victoria,VIC
Ivanhoe (Vic.),3079,Victoria,VIC
Heidelberg Heights,3081,Victoria,VIC
Mill Park,3082,Victoria,VIC
Kingsbury,3083,Victoria,VIC
Eaglemont,3084,Victoria,VIC
Yallambie,3085,Victoria,VIC
Watsonia North,3087,Victoria,VIC
Greensborough,3088,Victoria,VIC
Diamond Creek,3089,Victoria,VIC
Plenty (Vic.),3090,Victoria,VIC
Yarrambat,3091,Victoria,VIC
Lower Plenty,3093,Victoria,VIC
Montmorency,3094,Victoria,VIC
Research,3095,Victoria,VIC
Wattle Glen,3096,Victoria,VIC
Kangaroo Ground,3097,Victoria,VIC
Hurstbridge,3099,Victoria,VIC
Kew (Vic.),3101,Victoria,VIC
Kew East,3102,Victoria,VIC
Deepdene (Vic.),3103,Victoria,VIC
Balwyn North,3104,Victoria,VIC
Bulleen,3105,Victoria,VIC
Templestowe,3106,Victoria,VIC
Templestowe Lower,3107,Victoria,VIC
Doncaster,3108,Victoria,VIC
Doncaster East,3109,Victoria,VIC
Donvale,3111,Victoria,VIC
Warrandyte,3113,Victoria,VIC
Park Orchards,3114,Victoria,VIC
Wonga Park,3115,Victoria,VIC
Chirnside Park,3116,Victoria,VIC
Richmond (Vic.),3121,Victoria,VIC
Hawthorn (Vic.),3122,Victoria,VIC
Hawthorn East,3123,Victoria,VIC
Camberwell (Vic.),3124,Victoria,VIC
Burwood (Vic.),3125,Victoria,VIC
Canterbury (Vic.),3126,Victoria,VIC
Surrey Hills,3127,Victoria,VIC
Box Hill (Vic.),3128,Victoria,VIC
Mont Albert North,3129,Victoria,VIC
Blackburn South,3130,Victoria,VIC
Nunawading,3131,Victoria,VIC
Mitcham (Vic.),3132,Victoria,VIC
Vermont,3133,Victoria,VIC
Ringwood (Vic.),3134,Victoria,VIC
Heathmont,3135,Victoria,VIC
Croydon South,3136,Victoria,VIC
Kilsyth,3137,Victoria,VIC
Mooroolbark,3138,Victoria,VIC
Launching Place,3139,Victoria,VIC
Lilydale (Vic.),3140,Victoria,VIC
South Yarra,3141,Victoria,VIC
Toorak,3142,Victoria,VIC
Armadale (Vic.),3143,Victoria,VIC
Malvern (Vic.),3144,Victoria,VIC
Caulfield East,3145,Victoria,VIC
Glen Iris (Vic.),3146,Victoria,VIC
Ashwood,3147,Victoria,VIC
Chadstone,3148,Victoria,VIC
Mount Waverley,3149,Victoria,VIC
Glen Waverley,3150,Victoria,VIC
Burwood East,3151,Victoria,VIC
Wantirna South,3152,Victoria,VIC
Bayswater North,3153,Victoria,VIC
The Basin (Vic.),3154,Victoria,VIC
Boronia,3155,Victoria,VIC
Ferntree Gully,3156,Victoria,VIC
Upwey,3158,Victoria,VIC
Menzies Creek,3159,Victoria,VIC
Belgrave,3160,Victoria,VIC
Caulfield North,3161,Victoria,VIC
Caulfield South,3162,Victoria,VIC
Glen Huntly,3163,Victoria,VIC
Bentleigh East,3165,Victoria,VIC
Oakleigh,3166,Victoria,VIC
Oakleigh South,3167,Victoria,VIC
Clayton,3168,Victoria,VIC
Clayton South,3169,Victoria,VIC
Mulgrave (Vic.),3170,Victoria,VIC
Springvale (Vic.),3171,Victoria,VIC
Dingley Village,3172,Victoria,VIC
Keysborough,3173,Victoria,VIC
Noble Park,3174,Victoria,VIC
Dandenong North,3175,Victoria,VIC
Doveton,3177,Victoria,VIC
Rowville,3178,Victoria,VIC
Scoresby,3179,Victoria,VIC
Knoxfield,3180,Victoria,VIC
Prahran,3181,Victoria,VIC
St Kilda (Vic.),3182,Victoria,VIC
St Kilda East,3183,Victoria,VIC
Elwood,3184,Victoria,VIC
Elsternwick,3185,Victoria,VIC
Brighton (Vic.),3186,Victoria,VIC
Brighton East,3187,Victoria,VIC
Hampton (Vic.),3188,Victoria,VIC
Moorabbin,3189,Victoria,VIC
Highett,3190,Victoria,VIC
Sandringham (Vic.),3191,Victoria,VIC
Cheltenham (Vic.),3192,Victoria,VIC
Black Rock (Vic.),3193,Victoria,VIC
Mentone,3194,Victoria,VIC
Aspendale,3195,Victoria,VIC
Chelsea,3196,Victoria,VIC
Patterson Lakes,3197,Victoria,VIC
Seaford (Vic.),3198,Victoria,VIC
Frankston,3199,Victoria,VIC
Frankston North,3200,Victoria,VIC
Carrum Downs,3201,Victoria,VIC
Heatherton,3202,Victoria,VIC
Bentleigh,3204,Victoria,VIC
South Melbourne,3205,Victoria,VIC
Albert Park (Vic.),3206,Victoria,VIC
Port Melbourne,3207,Victoria,VIC
Little River (Vic.),3211,Victoria,VIC
Lara,3212,Victoria,VIC
Batesford,3213,Victoria,VIC
Norlane,3214,Victoria,VIC
North Geelong,3215,Victoria,VIC
Belmont (Vic.),3216,Victoria,VIC
Armstrong Creek (Vic.),3217,Victoria,VIC
Herne Hill (Vic.),3218,Victoria,VIC
East Geelong,3219,Victoria,VIC
Geelong,3220,Victoria,VIC
Barrabool,3221,Victoria,VIC
Clifton Springs,3222,Victoria,VIC
Portarlington,3223,Victoria,VIC
Leopold,3224,Victoria,VIC
Point Lonsdale,3225,Victoria,VIC
Ocean Grove,3226,Victoria,VIC
Barwon Heads,3227,Victoria,VIC
Torquay (Vic.),3228,Victoria,VIC
Anglesea,3230,Victoria,VIC
Big Hill (Surf Coast - Vic.),3231,Victoria,VIC
Lorne (Vic.),3232,Victoria,VIC
Apollo Bay (Vic.),3233,Victoria,VIC
Kennett River,3234,Victoria,VIC
Deans Marsh,3235,Victoria,VIC
Forrest (Vic.),3236,Victoria,VIC
Gellibrand Lower,3237,Victoria,VIC
Glenaire,3238,Victoria,VIC
Carlisle River,3239,Victoria,VIC
Gherang,3240,Victoria,VIC
Ombersley,3241,Victoria,VIC
Birregurra,3242,Victoria,VIC
Barwon Downs,3243,Victoria,VIC
Irrewillipe,3249,Victoria,VIC
Colac,3250,Victoria,VIC
Weering,3251,Victoria,VIC
Cororooke,3254,Victoria,VIC
Pomborneit North,3260,Victoria,VIC
Terang,3264,Victoria,VIC
Kolora,3265,Victoria,VIC
Cobden,3266,Victoria,VIC
Scotts Creek (Vic.),3267,Victoria,VIC
Nullawarre,3268,Victoria,VIC
Port Campbell,3269,Victoria,VIC
Peterborough (Vic.),3270,Victoria,VIC
Pura Pura,3271,Victoria,VIC
Woorndoo,3272,Victoria,VIC
Hexham (Vic.),3273,Victoria,VIC
Caramut,3274,Victoria,VIC
Mailors Flat,3275,Victoria,VIC
Woolsthorpe,3276,Victoria,VIC
Mepunga,3277,Victoria,VIC
Purnim,3278,Victoria,VIC
Wangoom,3279,Victoria,VIC
Warrnambool,3280,Victoria,VIC
Woodford (Vic.),3281,Victoria,VIC
Koroit,3282,Victoria,VIC
Yarpturk,3283,Victoria,VIC
Port Fairy,3284,Victoria,VIC
Tyrendarra,3285,Victoria,VIC
Macarthur (Vic.),3286,Victoria,VIC
Hawkesdale,3287,Victoria,VIC
Penshurst (Vic.),3289,Victoria,VIC
Nelson (Vic.),3292,Victoria,VIC
Glenthompson,3293,Victoria,VIC
Dunkeld (Vic.),3294,Victoria,VIC
Hamilton (Vic.),3300,Victoria,VIC
Tahara,3301,Victoria,VIC
Grassdale (Vic.),3302,Victoria,VIC
Condah,3303,Victoria,VIC
Homerton,3304,Victoria,VIC
Portland (Vic.),3305,Victoria,VIC
Digby,3309,Victoria,VIC
Tahara West,3310,Victoria,VIC
Corndale (Vic.),3311,Victoria,VIC
Dergholm,3312,Victoria,VIC
Cavendish,3314,Victoria,VIC
Clover Flat,3315,Victoria,VIC
Harrow,3317,Victoria,VIC
Edenhope,3318,Victoria,VIC
Apsley (Vic.),3319,Victoria,VIC
Inverleigh,3321,Victoria,VIC
Cressy (Vic.),3322,Victoria,VIC
Foxhow,3323,Victoria,VIC
Lismore (Vic.),3324,Victoria,VIC
Derrinallum,3325,Victoria,VIC
Teesdale (Vic.),3328,Victoria,VIC
Shelford,3329,Victoria,VIC
Rokewood,3330,Victoria,VIC
Bannockburn (Vic.),3331,Victoria,VIC
Lethbridge,3332,Victoria,VIC
Meredith,3333,Victoria,VIC
Bungal,3334,Victoria,VIC
Rockbank,3335,Victoria,VIC
Deanside,3336,Victoria,VIC
Melton (Vic.),3337,Victoria,VIC
Weir Views,3338,Victoria,VIC
Bacchus Marsh,3340,Victoria,VIC
Greendale (Vic.),3341,Victoria,VIC
Ballan,3342,Victoria,VIC
Gordon (Vic.),3345,Victoria,VIC
Lucas,3350,Victoria,VIC
Snake Valley,3351,Victoria,VIC
Enfield (Vic.),3352,Victoria,VIC
Wendouree,3355,Victoria,VIC
Sebastopol (Vic.),3356,Victoria,VIC
Buninyong,3357,Victoria,VIC
Winter Valley,3358,Victoria,VIC
Linton,3360,Victoria,VIC
Skipton,3361,Victoria,VIC
Creswick,3363,Victoria,VIC
Rocklyn,3364,Victoria,VIC
Clunes (Vic.),3370,Victoria,VIC
Talbot (Vic.),3371,Victoria,VIC
Beaufort (Vic.),3373,Victoria,VIC
Great Western,3374,Victoria,VIC
Ballyrogan,3375,Victoria,VIC
Ararat,3377,Victoria,VIC
Tatyoon,3378,Victoria,VIC
Chatsworth (Vic.),3379,Victoria,VIC
Stawell,3380,Victoria,VIC
Pomonal,3381,Victoria,VIC
Frenchmans,3384,Victoria,VIC
Dadswells Bridge,3385,Victoria,VIC
Germania,3387,Victoria,VIC
Rupanyup,3388,Victoria,VIC
Murtoa,3390,Victoria,VIC
Brim,3391,Victoria,VIC
Minyip,3392,Victoria,VIC
Wilkur,3393,Victoria,VIC
Reedy Dam,3395,Victoria,VIC
Hopetoun (Vic.),3396,Victoria,VIC
Horsham,3400,Victoria,VIC
Wail,3401,Victoria,VIC
Gatum,3407,Victoria,VIC
Mitre,3409,Victoria,VIC
Goroke,3412,Victoria,VIC
Peronne,3413,Victoria,VIC
Dimboola,3414,Victoria,VIC
Miram,3415,Victoria,VIC
Nhill,3418,Victoria,VIC
Kaniva,3419,Victoria,VIC
Serviceton,3420,Victoria,VIC
Jeparit,3423,Victoria,VIC
Rainbow,3424,Victoria,VIC
Diggers Rest,3427,Victoria,VIC
Bulla (Vic.),3428,Victoria,VIC
Sunbury,3429,Victoria,VIC
Clarkefield,3430,Victoria,VIC
Riddells Creek,3431,Victoria,VIC
Bolinda,3432,Victoria,VIC
Monegeetta,3433,Victoria,VIC
Romsey,3434,Victoria,VIC
Lancefield,3435,Victoria,VIC
Gisborne,3437,Victoria,VIC
New Gisborne,3438,Victoria,VIC
Macedon,3440,Victoria,VIC
Mount Macedon,3441,Victoria,VIC
Newham,3442,Victoria,VIC
Kyneton,3444,Victoria,VIC
Drummond North,3446,Victoria,VIC
Taradale (Vic.),3447,Victoria,VIC
Metcalfe,3448,Victoria,VIC
Castlemaine,3450,Victoria,VIC
Guildford (Vic.),3451,Victoria,VIC
Harcourt North,3453,Victoria,VIC
North Blackwood,3458,Victoria,VIC
Daylesford,3460,Victoria,VIC
Glenlyon (Vic.),3461,Victoria,VIC
Newstead (Vic.),3462,Victoria,VIC
Laanecoorie,3463,Victoria,VIC
Carisbrook,3464,Victoria,VIC
Bung Bong,3465,Victoria,VIC
Avoca (Vic.),3467,Victoria,VIC
Amphitheatre,3468,Victoria,VIC
Elmhurst,3469,Victoria,VIC
Bromley,3472,Victoria,VIC
Archdale,3475,Victoria,VIC
Coonooer Bridge,3477,Victoria,VIC
Dooboobetic,3478,Victoria,VIC
Laen East,3480,Victoria,VIC
Warmur,3482,Victoria,VIC
Birchip,3483,Victoria,VIC
Woomelang,3485,Victoria,VIC
Lascelles,3487,Victoria,VIC
Turriff East,3488,Victoria,VIC
Tempy,3489,Victoria,VIC
Murray-sunset,3490,Victoria,VIC
Patchewollock,3491,Victoria,VIC
Nangiloc,3494,Victoria,VIC
Red Cliffs,3496,Victoria,VIC
Irymple (Vic.),3498,Victoria,VIC
Mildura,3500,Victoria,VIC
Hattah,3501,Victoria,VIC
Wargan,3505,Victoria,VIC
Cowangie,3506,Victoria,VIC
Walpeup,3507,Victoria,VIC
Underbool,3509,Victoria,VIC
Murrayville,3512,Victoria,VIC
Marong,3515,Victoria,VIC
Bridgewater North,3516,Victoria,VIC
Inglewood (Vic.),3517,Victoria,VIC
Wedderburn (Vic.),3518,Victoria,VIC
Korong Vale,3520,Victoria,VIC
Pyalong,3521,Victoria,VIC
Tooborac,3522,Victoria,VIC
Heathcote (Vic.),3523,Victoria,VIC
Wychitella North,3525,Victoria,VIC
Wycheproof,3527,Victoria,VIC
Nullawil,3529,Victoria,VIC
Warne,3530,Victoria,VIC
Berriwillock,3531,Victoria,VIC
Sea Lake,3533,Victoria,VIC
Boort,3537,Victoria,VIC
Quambatook,3540,Victoria,VIC
Lalbert,3542,Victoria,VIC
Ultima,3544,Victoria,VIC
Turoar,3546,Victoria,VIC
Robinvale,3549,Victoria,VIC
Quarry Hill,3550,Victoria,VIC
Epsom (Vic.),3551,Victoria,VIC
Kangaroo Flat (Vic.),3555,Victoria,VIC
Whipstick,3556,Victoria,VIC
Fosterville,3557,Victoria,VIC
Elmore,3558,Victoria,VIC
Burramboot,3559,Victoria,VIC
Rochester (Vic.),3561,Victoria,VIC
Torrumbarry,3562,Victoria,VIC
Lockington,3563,Victoria,VIC
Echuca,3564,Victoria,VIC
Kotta,3565,Victoria,VIC
Gunbower,3566,Victoria,VIC
Leitchville,3567,Victoria,VIC
Burkes Bridge,3568,Victoria,VIC
Neilborough,3570,Victoria,VIC
Kamarooka North,3571,Victoria,VIC
Milloo,3572,Victoria,VIC
Calivil,3573,Victoria,VIC
Gladfield (Vic.),3575,Victoria,VIC
Durham Ox,3576,Victoria,VIC
Kerang,3579,Victoria,VIC
Koondrook,3580,Victoria,VIC
Lake Charm,3581,Victoria,VIC
Tresco,3583,Victoria,VIC
Lake Boga,3584,Victoria,VIC
Meatian,3585,Victoria,VIC
Tyntynder South,3586,Victoria,VIC
Woorinen South,3588,Victoria,VIC
Woorinen,3589,Victoria,VIC
Beverford,3590,Victoria,VIC
Vinifera,3591,Victoria,VIC
Nyah,3594,Victoria,VIC
Nyah West,3595,Victoria,VIC
Wood Wood,3596,Victoria,VIC
Kenley,3597,Victoria,VIC
Boundary Bend,3599,Victoria,VIC
Tabilk,3607,Victoria,VIC
Mitchellstown,3608,Victoria,VIC
Murchison (Vic.),3610,Victoria,VIC
Whroo,3612,Victoria,VIC
Toolamba,3614,Victoria,VIC
Tatura,3616,Victoria,VIC
Byrneside,3617,Victoria,VIC
Merrigum,3618,Victoria,VIC
Kyabram,3620,Victoria,VIC
Tongala,3621,Victoria,VIC
Strathallan,3622,Victoria,VIC
Carag Carag,3623,Victoria,VIC
Girgarre,3624,Victoria,VIC
Mooroopna,3629,Victoria,VIC
Shepparton,3630,Victoria,VIC
Kialla,3631,Victoria,VIC
Congupna,3633,Victoria,VIC
Katandra West,3634,Victoria,VIC
Wunghnu,3635,Victoria,VIC
Numurkah,3636,Victoria,VIC
Waaia,3637,Victoria,VIC
Nathalia,3638,Victoria,VIC
Barmah,3639,Victoria,VIC
Katunga,3640,Victoria,VIC
Bearii,3641,Victoria,VIC
Cobram,3644,Victoria,VIC
Dookie,3646,Victoria,VIC
Dookie College,3647,Victoria,VIC
Katamatite,3649,Victoria,VIC
Broadford,3658,Victoria,VIC
Tallarook,3659,Victoria,VIC
Seymour (Vic.),3660,Victoria,VIC
Puckapunyal,3662,Victoria,VIC
Mangalore (Vic.),3663,Victoria,VIC
Avenel,3664,Victoria,VIC
Longwood (Vic.),3665,Victoria,VIC
Tarcombe,3666,Victoria,VIC
Violet Town,3669,Victoria,VIC
Baddaginnie,3670,Victoria,VIC
Benalla,3672,Victoria,VIC
Winton North,3673,Victoria,VIC
Greta South,3675,Victoria,VIC
Wangaratta (Vic.),3677,Victoria,VIC
Peechelba,3678,Victoria,VIC
Lilliput,3682,Victoria,VIC
Chiltern,3683,Victoria,VIC
Boorhaman North,3685,Victoria,VIC
Wahgunyah,3687,Victoria,VIC
Indigo Valley,3688,Victoria,VIC
Wodonga,3690,Victoria,VIC
Lake Hume Village,3691,New South Wales,NSW
Sandy Creek (Vic.),3695,Victoria,VIC
Tawonga,3697,Victoria,VIC
Tawonga South,3698,Victoria,VIC
Nelse,3699,Victoria,VIC
Tallangatta,3700,Victoria,VIC
Dartmouth,3701,Victoria,VIC
Koetong,3704,Victoria,VIC
Cudgewa,3705,Victoria,VIC
Bringenbrong,3707,New South Wales,NSW
Tintaldra,3708,Victoria,VIC
Guys Forest,3709,Victoria,VIC
Buxton (Vic.),3711,Victoria,VIC
Rubicon,3712,Victoria,VIC
Lake Eildon,3713,Victoria,VIC
Alexandra (Vic.),3714,Victoria,VIC
Ancona,3715,Victoria,VIC
Yea,3717,Victoria,VIC
Molesworth (Vic.),3718,Victoria,VIC
Terip Terip,3719,Victoria,VIC
Bonnie Doon (Vic.),3720,Victoria,VIC
Mansfield (Vic.),3722,Victoria,VIC
Mount Buller,3723,Victoria,VIC
Goorambat,3725,Victoria,VIC
Devenish,3726,Victoria,VIC
St James (Vic.),3727,Victoria,VIC
Youarang,3728,Victoria,VIC
Burramine,3730,Victoria,VIC
Moyhu,3732,Victoria,VIC
Whitfield (Vic.),3733,Victoria,VIC
Whorouly,3735,Victoria,VIC
Myrtleford,3737,Victoria,VIC
Ovens,3738,Victoria,VIC
Eurobin,3739,Victoria,VIC
Buckland (Vic.),3740,Victoria,VIC
Bright (Vic.),3741,Victoria,VIC
Wandiligong,3744,Victoria,VIC
Eldorado,3746,Victoria,VIC
Beechworth,3747,Victoria,VIC
Yackandandah,3749,Victoria,VIC
Wollert,3750,Victoria,VIC
Woodstock (Vic.),3751,Victoria,VIC
South Morang,3752,Victoria,VIC
Beveridge,3753,Victoria,VIC
Mernda,3754,Victoria,VIC
Yan Yean,3755,Victoria,VIC
Wallan,3756,Victoria,VIC
Whittlesea,3757,Victoria,VIC
Heathcote Junction,3758,Victoria,VIC
Panton Hill,3759,Victoria,VIC
Smiths Gully,3760,Victoria,VIC
St Andrews (Vic.),3761,Victoria,VIC
Bylands,3762,Victoria,VIC
Kinglake,3763,Victoria,VIC
Kilmore,3764,Victoria,VIC
Montrose (Vic.),3765,Victoria,VIC
Kalorama,3766,Victoria,VIC
Mount Dandenong,3767,Victoria,VIC
Gruyere,3770,Victoria,VIC
Steels Creek,3775,Victoria,VIC
Healesville,3777,Victoria,VIC
Narbethong,3778,Victoria,VIC
Marysville,3779,Victoria,VIC
Cockatoo (Vic.),3781,Victoria,VIC
Emerald (Vic.),3782,Victoria,VIC
Gembrook,3783,Victoria,VIC
Tremont,3785,Victoria,VIC
Ferny Creek,3786,Victoria,VIC
Sassafras (Vic.),3787,Victoria,VIC
Olinda (Vic.),3788,Victoria,VIC
Sherbrooke,3789,Victoria,VIC
Kallista,3791,Victoria,VIC
The Patch,3792,Victoria,VIC
Monbulk,3793,Victoria,VIC
Silvan,3795,Victoria,VIC
Mount Evelyn,3796,Victoria,VIC
Three Bridges,3797,Victoria,VIC
Millgrove,3799,Victoria,VIC
Endeavour Hills,3802,Victoria,VIC
Hallam,3803,Victoria,VIC
Narre Warren East,3804,Victoria,VIC
Narre Warren South,3805,Victoria,VIC
Berwick,3806,Victoria,VIC
Beaconsfield (Vic.),3807,Victoria,VIC
Beaconsfield Upper,3808,Victoria,VIC
Officer,3809,Victoria,VIC
Pakenham,3810,Victoria,VIC
Nar Nar Goon North,3812,Victoria,VIC
Tynong,3813,Victoria,VIC
Garfield,3814,Victoria,VIC
Bunyip,3815,Victoria,VIC
Longwarry,3816,Victoria,VIC
Drouin,3818,Victoria,VIC
Warragul,3820,Victoria,VIC
Crossover,3821,Victoria,VIC
Darnum,3822,Victoria,VIC
Yarragon,3823,Victoria,VIC
Narracan,3824,Victoria,VIC
Tanjil South,3825,Victoria,VIC
Neerim South,3831,Victoria,VIC
Neerim North,3832,Victoria,VIC
Ada,3833,Victoria,VIC
Thorpdale,3835,Victoria,VIC
Morwell,3840,Victoria,VIC
Churchill (Vic.),3842,Victoria,VIC
Traralgon South,3844,Victoria,VIC
Rosedale (Vic.),3847,Victoria,VIC
Sale,3850,Victoria,VIC
Cobains,3851,Victoria,VIC
East Sale,3852,Victoria,VIC
Glengarry (Vic.),3854,Victoria,VIC
Toongabbie (Vic.),3856,Victoria,VIC
Cowwarr,3857,Victoria,VIC
Reynard,3858,Victoria,VIC
Tinamba,3859,Victoria,VIC
Briagolong,3860,Victoria,VIC
Wongungarra,3862,Victoria,VIC
Fernbank,3864,Victoria,VIC
Lindenow,3865,Victoria,VIC
Yinnar,3869,Victoria,VIC
Boolarra South,3870,Victoria,VIC
Mirboo North,3871,Victoria,VIC
Gormandale,3873,Victoria,VIC
Woodside (Vic.),3874,Victoria,VIC
Bairnsdale,3875,Victoria,VIC
Eagle Point,3878,Victoria,VIC
Ocean Grange,3880,Victoria,VIC
Nicholson (Vic.),3882,Victoria,VIC
W Tree,3885,Victoria,VIC
Newmerella,3886,Victoria,VIC
Lake Tyers,3887,Victoria,VIC
Marlo,3888,Victoria,VIC
Bemm River,3889,Victoria,VIC
Cann River,3890,Victoria,VIC
Genoa,3891,Victoria,VIC
Mallacoota,3892,Victoria,VIC
Double Bridges,3893,Victoria,VIC
Ensay,3895,Victoria,VIC
Swifts Creek,3896,Victoria,VIC
Omeo,3898,Victoria,VIC
Benambra,3900,Victoria,VIC
Bumberrah,3902,Victoria,VIC
Swan Reach (Vic.),3903,Victoria,VIC
Metung,3904,Victoria,VIC
Kalimna,3909,Victoria,VIC
Langwarrin,3910,Victoria,VIC
Baxter,3911,Victoria,VIC
Pearcedale,3912,Victoria,VIC
Tyabb,3913,Victoria,VIC
Hastings (Vic.),3915,Victoria,VIC
Shoreham,3916,Victoria,VIC
Bittern,3918,Victoria,VIC
Crib Point,3919,Victoria,VIC
Hmas Cerberus,3920,Victoria,VIC
French Island,3921,Victoria,VIC
Surf Beach (Vic.),3922,Victoria,VIC
Rhyll,3923,Victoria,VIC
San Remo (Vic.),3925,Victoria,VIC
Balnarring,3926,Victoria,VIC
Somers,3927,Victoria,VIC
Main Ridge,3928,Victoria,VIC
Flinders (Vic.),3929,Victoria,VIC
Mount Eliza,3930,Victoria,VIC
Mornington (Vic.),3931,Victoria,VIC
Moorooduc,3933,Victoria,VIC
Mount Martha,3934,Victoria,VIC
Safety Beach (Vic.),3936,Victoria,VIC
Red Hill (Vic.),3937,Victoria,VIC
McCrae,3938,Victoria,VIC
Cape Schanck,3939,Victoria,VIC
Capel Sound,3940,Victoria,VIC
Tootgarook,3941,Victoria,VIC
Blairgowrie,3942,Victoria,VIC
Sorrento (Vic.),3943,Victoria,VIC
Portsea,3944,Victoria,VIC
Loch,3945,Victoria,VIC
Bena,3946,Victoria,VIC
Strzelecki (Vic.),3950,Victoria,VIC
Kongwak,3951,Victoria,VIC
Trida,3953,Victoria,VIC
Koonwarra,3954,Victoria,VIC
Meeniyan,3956,Victoria,VIC
Stony Creek (South Gippsland - Vic.),3957,Victoria,VIC
Buffalo,3958,Victoria,VIC
Sandy Point (Vic.),3959,Victoria,VIC
Woorarra West,3960,Victoria,VIC
Toora (Vic.),3962,Victoria,VIC
Port Franklin,3964,Victoria,VIC
Port Welshpool,3965,Victoria,VIC
Welshpool (Vic.),3966,Victoria,VIC
Hedley,3967,Victoria,VIC
Balook,3971,Victoria,VIC
Lynbrook,3975,Victoria,VIC
Hampton Park,3976,Victoria,VIC
Cranbourne East,3977,Victoria,VIC
Clyde (Vic.),3978,Victoria,VIC
Almurta,3979,Victoria,VIC
Tooradin,3980,Victoria,VIC
Koo Wee Rup,3981,Victoria,VIC
Corinella (Vic.),3984,Victoria,VIC
Nyora (Vic.),3987,Victoria,VIC
Poowong East,3988,Victoria,VIC
Glen Forbes,3990,Victoria,VIC
Bass,3991,Victoria,VIC
Dalyston,3992,Victoria,VIC
Wonthaggi,3995,Victoria,VIC
Pound Creek,3996,Victoria,VIC
Brisbane City,4000,Queensland,QLD
Teneriffe,4005,Queensland,QLD
Fortitude Valley,4006,Queensland,QLD
Ascot (Brisbane - Qld),4007,Queensland,QLD
Brisbane Airport,4008,Queensland,QLD
Eagle Farm,4009,Queensland,QLD
Albion (Brisbane - Qld),4010,Queensland,QLD
Hendra,4011,Queensland,QLD
Wavell Heights,4012,Queensland,QLD
Northgate (Qld),4013,Queensland,QLD
Banyo,4014,Queensland,QLD
Bracken Ridge,4017,Queensland,QLD
Fitzgibbon,4018,Queensland,QLD
Woody Point,4019,Queensland,QLD
Scarborough (Qld),4020,Queensland,QLD
Kippa-Ring,4021,Queensland,QLD
Rothwell,4022,Queensland,QLD
Moreton Island,4025,Queensland,QLD
Windsor (Qld),4030,Queensland,QLD
Gordon Park,4031,Queensland,QLD
Chermside West,4032,Queensland,QLD
Geebung,4034,Queensland,QLD
Albany Creek,4035,Queensland,QLD
Bald Hills (Qld),4036,Queensland,QLD
Eatons Hill,4037,Queensland,QLD
Wilston,4051,Queensland,QLD
Stafford,4053,Queensland,QLD
Keperra,4054,Queensland,QLD
Ferny Grove,4055,Queensland,QLD
Kelvin Grove,4059,Queensland,QLD
Ashgrove,4060,Queensland,QLD
The Gap (Brisbane - Qld),4061,Queensland,QLD
Paddington (Qld),4064,Queensland,QLD
Bardon,4065,Queensland,QLD
Toowong,4066,Queensland,QLD
St Lucia,4067,Queensland,QLD
Indooroopilly,4068,Queensland,QLD
Kenmore,4069,Queensland,QLD
Anstead,4070,Queensland,QLD
Sinnamon Park,4073,Queensland,QLD
Middle Park (Qld),4074,Queensland,QLD
Graceville,4075,Queensland,QLD
Wacol,4076,Queensland,QLD
Inala,4077,Queensland,QLD
Forest Lake,4078,Queensland,QLD
Highgate Hill,4101,Queensland,QLD
Woolloongabba,4102,Queensland,QLD
Annerley,4103,Queensland,QLD
Yeronga,4104,Queensland,QLD
Yeerongpilly,4105,Queensland,QLD
Rocklea (Qld),4106,Queensland,QLD
Salisbury (Qld),4107,Queensland,QLD
Coopers Plains,4108,Queensland,QLD
Sunnybank Hills,4109,Queensland,QLD
Willawong,4110,Queensland,QLD
Nathan,4111,Queensland,QLD
Kuraby,4112,Queensland,QLD
Eight Mile Plains,4113,Queensland,QLD
Logan Central,4114,Queensland,QLD
Algester,4115,Queensland,QLD
Drewvale,4116,Queensland,QLD
Berrinba,4117,Queensland,QLD
Forestdale,4118,Queensland,QLD
Underwood (Qld),4119,Queensland,QLD
Greenslopes,4120,Queensland,QLD
Holland Park,4121,Queensland,QLD
Upper Mount Gravatt,4122,Queensland,QLD
Rochedale South,4123,Queensland,QLD
Greenbank,4124,Queensland,QLD
Munruben,4125,Queensland,QLD
Daisy Hill (Qld),4127,Queensland,QLD
Tanah Merah,4128,Queensland,QLD
Loganholme,4129,Queensland,QLD
Cornubia,4130,Queensland,QLD
Loganlea,4131,Queensland,QLD
Marsden,4132,Queensland,QLD
Chambers Flat,4133,Queensland,QLD
Coorparoo,4151,Queensland,QLD
Carina (Qld),4152,Queensland,QLD
Belmont (Qld),4153,Queensland,QLD
Wakerley,4154,Queensland,QLD
Chandler (Qld),4155,Queensland,QLD
Burbank,4156,Queensland,QLD
Capalaba,4157,Queensland,QLD
Thorneside,4158,Queensland,QLD
Birkdale,4159,Queensland,QLD
Ormiston,4160,Queensland,QLD
Alexandra Hills,4161,Queensland,QLD
Cleveland (Qld),4163,Queensland,QLD
Thornlands,4164,Queensland,QLD
Redland Bay,4165,Queensland,QLD
East Brisbane,4169,Queensland,QLD
Norman Park,4170,Queensland,QLD
Bulimba,4171,Queensland,QLD
Murarrie,4172,Queensland,QLD
Tingalpa,4173,Queensland,QLD
Hemmant,4174,Queensland,QLD
Wynnum,4178,Queensland,QLD
Manly West,4179,Queensland,QLD
Amity,4183,Queensland,QLD
Macleay Island,4184,Queensland,QLD
Bethania,4205,Queensland,QLD
Eagleby,4207,Queensland,QLD
Ormeau,4208,Queensland,QLD
Upper Coomera,4209,Queensland,QLD
Oxenford,4210,Queensland,QLD
Gaven,4211,Queensland,QLD
Helensvale,4212,Queensland,QLD
Tallai,4213,Queensland,QLD
Ashmore,4214,Queensland,QLD
Labrador,4215,Queensland,QLD
Hollywell,4216,Queensland,QLD
Surfers Paradise,4217,Queensland,QLD
Broadbeach,4218,Queensland,QLD
Burleigh Waters,4220,Queensland,QLD
Elanora,4221,Queensland,QLD
Currumbin Valley,4223,Queensland,QLD
Tugun,4224,Queensland,QLD
Bilinga,4225,Queensland,QLD
Robina,4226,Queensland,QLD
Reedy Creek (Qld),4227,Queensland,QLD
Tallebudgera,4228,Queensland,QLD
Tamborine,4270,Queensland,QLD
Tamborine Mountain,4272,Queensland,QLD
Boyland,4275,Queensland,QLD
North Maclean,4280,Queensland,QLD
Kerry,4285,Queensland,QLD
Rathdowney,4287,Queensland,QLD
Goodna,4300,Queensland,QLD
Redbank Plains,4301,Queensland,QLD
Riverview (Qld),4303,Queensland,QLD
Silkstone,4304,Queensland,QLD
Tivoli,4305,Queensland,QLD
Karana Downs,4306,Queensland,QLD
Mutdapilly,4307,Queensland,QLD
Aratula (Qld),4309,Queensland,QLD
Bunjurgen,4310,Queensland,QLD
Prenzlau,4311,Queensland,QLD
Esk (Qld),4312,Queensland,QLD
Toogoolawah,4313,Queensland,QLD
Mount Stanley,4314,Queensland,QLD
Ashwell,4340,Queensland,QLD
Laidley,4341,Queensland,QLD
Forest Hill (Qld),4342,Queensland,QLD
Adare,4343,Queensland,QLD
Helidon,4344,Queensland,QLD
Marburg,4346,Queensland,QLD
Mount Whitestone,4347,Queensland,QLD
Newtown (Toowoomba - Qld),4350,Queensland,QLD
Withcott,4352,Queensland,QLD
Haden,4353,Queensland,QLD
Goombungee,4354,Queensland,QLD
Anduramba,4355,Queensland,QLD
Pittsworth,4356,Queensland,QLD
Millmerran,4357,Queensland,QLD
Cambooya,4358,Queensland,QLD
Greenmount (Toowoomba - Qld),4359,Queensland,QLD
Nobby,4360,Queensland,QLD
Pilton,4361,Queensland,QLD
Allora,4362,Queensland,QLD
Southbrook,4363,Queensland,QLD
Brookstead,4364,Queensland,QLD
Leyburn,4365,Queensland,QLD
Greymare,4370,Queensland,QLD
Swanfels,4371,Queensland,QLD
Tannymorel,4372,Queensland,QLD
Killarney (Qld),4373,Queensland,QLD
Dalveen,4374,Queensland,QLD
Cottonvale (NSW),4375,New South Wales,NSW
Thulimbah,4376,Queensland,QLD
Maryland (Tenterfield - NSW),4377,New South Wales,NSW
Applethorpe,4378,Queensland,QLD
Mingoola (NSW),4380,New South Wales,NSW
Glen Aplin,4381,Queensland,QLD
Ballandean,4382,Queensland,QLD
Jennings,4383,New South Wales,NSW
Limevale,4384,Queensland,QLD
Camp Creek (NSW),4385,New South Wales,NSW
Mosquito Creek,4387,Queensland,QLD
Yelarbon,4388,Queensland,QLD
Calingunee,4390,Queensland,QLD
Kingsthorpe,4400,Queensland,QLD
Oakey,4401,Queensland,QLD
Cooyar,4402,Queensland,QLD
Quinalow,4403,Queensland,QLD
Irvingdale,4404,Queensland,QLD
Dalby,4405,Queensland,QLD
Moonie,4406,Queensland,QLD
Nangwee,4407,Queensland,QLD
Bell (Qld),4408,Queensland,QLD
Diamondy,4410,Queensland,QLD
Warra,4411,Queensland,QLD
Brigalow,4412,Queensland,QLD
Chinchilla,4413,Queensland,QLD
Miles,4415,Queensland,QLD
Nangram,4416,Queensland,QLD
Surat,4417,Queensland,QLD
Guluguba,4418,Queensland,QLD
Woleebee,4419,Queensland,QLD
Taroom,4420,Queensland,QLD
Tara (Qld),4421,Queensland,QLD
Westmar,4422,Queensland,QLD
Glenmorgan,4423,Queensland,QLD
Drillham South,4424,Queensland,QLD
Dulacca,4425,Queensland,QLD
Jackson,4426,Queensland,QLD
Yuleba,4427,Queensland,QLD
Waikola,4428,Queensland,QLD
Injune,4454,Queensland,QLD
Roma,4455,Queensland,QLD
Muckadilla,4461,Queensland,QLD
Walhallow,4462,Queensland,QLD
Kilmorey Falls,4465,Queensland,QLD
Mungallala South,4467,Queensland,QLD
Clara Creek,4468,Queensland,QLD
Charleville,4470,Queensland,QLD
Blackall,4472,Queensland,QLD
Adavale,4474,Queensland,QLD
Augathella,4477,Queensland,QLD
Lumeah (Qld),4478,Queensland,QLD
Cooladdi,4479,Queensland,QLD
Quilpie,4480,Queensland,QLD
Windorah,4481,Queensland,QLD
Birdsville,4482,Queensland,QLD
Dirranbandi,4486,Queensland,QLD
St George (Qld),4487,Queensland,QLD
Bollon,4488,Queensland,QLD
Wyandra,4489,Queensland,QLD
Cunnamulla,4490,Queensland,QLD
Eulo,4491,Queensland,QLD
Noccundra,4492,Queensland,QLD
Hungerford (Qld),4493,Queensland,QLD
North Bungunya,4494,Queensland,QLD
North Talwood,4496,Queensland,QLD
Daymar,4497,Queensland,QLD
Toobeah,4498,Queensland,QLD
Cashmere,4500,Queensland,QLD
Lawnton,4501,Queensland,QLD
Petrie,4502,Queensland,QLD
Kallangur,4503,Queensland,QLD
Narangba,4504,Queensland,QLD
Burpengary,4505,Queensland,QLD
Morayfield,4506,Queensland,QLD
Bellara,4507,Queensland,QLD
Deception Bay,4508,Queensland,QLD
North Lakes,4509,Queensland,QLD
Caboolture,4510,Queensland,QLD
Ningi,4511,Queensland,QLD
Wamuran,4512,Queensland,QLD
Mount Archer (Somerset - Qld),4514,Queensland,QLD
Glenfern (Qld),4515,Queensland,QLD
Elimbah,4516,Queensland,QLD
Beerburrum,4517,Queensland,QLD
Glass House Mountains,4518,Queensland,QLD
Beerwah,4519,Queensland,QLD
Wights Mountain,4520,Queensland,QLD
Ocean View,4521,Queensland,QLD
Landsborough (Qld),4550,Queensland,QLD
Caloundra West,4551,Queensland,QLD
Maleny,4552,Queensland,QLD
Palmview,4553,Queensland,QLD
Ilkley,4554,Queensland,QLD
Palmwoods (Qld),4555,Queensland,QLD
Sippy Downs,4556,Queensland,QLD
Mooloolaba,4557,Queensland,QLD
Maroochydore,4558,Queensland,QLD
Kiels Mountain,4559,Queensland,QLD
Bli Bli,4560,Queensland,QLD
Ninderry,4561,Queensland,QLD
Eumundi,4562,Queensland,QLD
Cooroy,4563,Queensland,QLD
Twin Waters,4564,Queensland,QLD
Tewantin,4565,Queensland,QLD
Noosaville,4566,Queensland,QLD
Sunrise Beach,4567,Queensland,QLD
Pinbarren,4568,Queensland,QLD
Cooran,4569,Queensland,QLD
North Deep Creek,4570,Queensland,QLD
Kin Kin,4571,Queensland,QLD
Alexandra Headland,4572,Queensland,QLD
Peregian Beach,4573,Queensland,QLD
Kenilworth,4574,Queensland,QLD
Buddina,4575,Queensland,QLD
Tin Can Bay,4580,Queensland,QLD
Rainbow Beach,4581,Queensland,QLD
Cinnabar,4600,Queensland,QLD
Goomeri,4601,Queensland,QLD
Murgon,4605,Queensland,QLD
Wondai,4606,Queensland,QLD
Tingoora,4608,Queensland,QLD
Kingaroy,4610,Queensland,QLD
Mondure,4611,Queensland,QLD
Hivesville,4612,Queensland,QLD
Proston,4613,Queensland,QLD
Yarraman (Qld),4614,Queensland,QLD
Nanango,4615,Queensland,QLD
Gungaloon,4620,Queensland,QLD
Degilbo,4621,Queensland,QLD
Gayndah,4625,Queensland,QLD
Old Cooranga,4626,Queensland,QLD
Eidsvold East,4627,Queensland,QLD
Monto,4630,Queensland,QLD
Oakhurst (Qld),4650,Queensland,QLD
Torquay (Qld),4655,Queensland,QLD
Burrum Town,4659,Queensland,QLD
Cordalba,4660,Queensland,QLD
Torbanlea,4662,Queensland,QLD
Avenell Heights,4670,Queensland,QLD
Gaeta,4671,Queensland,QLD
Yandaran,4673,Queensland,QLD
Baffle Creek,4674,Queensland,QLD
Lowmead,4676,Queensland,QLD
Agnes Water,4677,Queensland,QLD
Turkey Beach,4678,Queensland,QLD
Gladstone Harbour,4680,Queensland,QLD
Yarwun,4694,Queensland,QLD
Darts Creek,4695,Queensland,QLD
Raglan (Qld),4697,Queensland,QLD
Bajool,4699,Queensland,QLD
Rockhampton City,4700,Queensland,QLD
Norman Gardens,4701,Queensland,QLD
Stanage,4702,Queensland,QLD
Yeppoon,4703,Queensland,QLD
Yaamba,4704,Queensland,QLD
Lotus Creek,4705,Queensland,QLD
Ogmore,4706,Queensland,QLD
The Percy Group,4707,Queensland,QLD
Tieri,4709,Queensland,QLD
Zilzie,4710,Queensland,QLD
Glendale (Qld),4711,Queensland,QLD
Duaringa,4712,Queensland,QLD
Woorabinda,4713,Queensland,QLD
Mount Morgan,4714,Queensland,QLD
Biloela,4715,Queensland,QLD
Thangool,4716,Queensland,QLD
Blackwater,4717,Queensland,QLD
Mungabunda,4718,Queensland,QLD
Theodore (Qld),4719,Queensland,QLD
Emerald (Qld),4720,Queensland,QLD
Belyando,4721,Queensland,QLD
Wealwandangie,4722,Queensland,QLD
Hibernia,4723,Queensland,QLD
Alpha,4724,Queensland,QLD
Barcaldine,4725,Queensland,QLD
Aramac,4726,Queensland,QLD
Ilfracombe,4727,Queensland,QLD
Jericho (Qld),4728,Queensland,QLD
Longreach (Qld),4730,Queensland,QLD
Isisford,4731,Queensland,QLD
Muttaburra,4732,Queensland,QLD
Corfield,4733,Queensland,QLD
Opalton,4735,Queensland,QLD
Jundah,4736,Queensland,QLD
Armstrong Beach,4737,Queensland,QLD
Koumala,4738,Queensland,QLD
Carmila,4739,Queensland,QLD
Glenella,4740,Queensland,QLD
Mount Ossa,4741,Queensland,QLD
Oxford,4742,Queensland,QLD
Glenden,4743,Queensland,QLD
Moranbah,4744,Queensland,QLD
Dysart (Qld),4745,Queensland,QLD
Middlemount,4746,Queensland,QLD
Shoal Point,4750,Queensland,QLD
Walkerston,4751,Queensland,QLD
Marian,4753,Queensland,QLD
Mirani,4754,Queensland,QLD
Netherdale,4756,Queensland,QLD
Eungella (Qld),4757,Queensland,QLD
St Helens Beach,4798,Queensland,QLD
Midge Point,4799,Queensland,QLD
Proserpine,4800,Queensland,QLD
Cannonvale,4802,Queensland,QLD
Collinsville (Qld),4804,Queensland,QLD
Bowen,4805,Queensland,QLD
Home Hill,4806,Queensland,QLD
Ayr,4807,Queensland,QLD
Brandon,4808,Queensland,QLD
Shirbourne,4809,Queensland,QLD
Belgian Gardens,4810,Queensland,QLD
Oonoonba,4811,Queensland,QLD
Gulliver,4812,Queensland,QLD
Mount Louisa,4814,Queensland,QLD
Kelso (Qld),4815,Queensland,QLD
Balgal Beach,4816,Queensland,QLD
Kirwan,4817,Queensland,QLD
Mount Low,4818,Queensland,QLD
Nelly Bay,4819,Queensland,QLD
Mosman Park (Qld),4820,Queensland,QLD
Prairie (Qld),4821,Queensland,QLD
Maxwelton,4822,Queensland,QLD
Julia Creek,4823,Queensland,QLD
Cloncurry,4824,Queensland,QLD
Alpurrurulam,4825,Northern Territory,NT
Camooweal,4828,Queensland,QLD
Amaroo (Qld),4829,Queensland,QLD
Burketown,4830,Queensland,QLD
Hinchinbrook (Qld),4849,Queensland,QLD
Ingham,4850,Queensland,QLD
South Mission Beach,4852,Queensland,QLD
Tully,4854,Queensland,QLD
Maadi,4855,Queensland,QLD
Silkwood,4856,Queensland,QLD
Comoon Loop,4858,Queensland,QLD
South Johnstone,4859,Queensland,QLD
Ngatjan,4860,Queensland,QLD
Babinda (Qld),4861,Queensland,QLD
Gordonvale,4865,Queensland,QLD
Woree,4868,Queensland,QLD
Edmonton,4869,Queensland,QLD
Bungalow,4870,Queensland,QLD
Yarrabah,4871,Queensland,QLD
Silver Valley,4872,Queensland,QLD
Low Isles,4873,Queensland,QLD
Trunding,4874,Queensland,QLD
Coral Sea,4875,Queensland,QLD
Punsand,4876,Queensland,QLD
Port Douglas,4877,Queensland,QLD
Smithfield (Qld),4878,Queensland,QLD
Kewarra Beach,4879,Queensland,QLD
Mareeba,4880,Queensland,QLD
Kuranda,4881,Queensland,QLD
Tolga,4882,Queensland,QLD
Wongabel,4883,Queensland,QLD
Lake Eacham,4884,Queensland,QLD
Malanda,4885,Queensland,QLD
Moregatta,4886,Queensland,QLD
Wondecla,4887,Queensland,QLD
Ravenshoe,4888,Queensland,QLD
Normanton,4890,Queensland,QLD
Karumba,4891,Queensland,QLD
Yarraden,4892,Queensland,QLD
Bloomfield,4895,Queensland,QLD
Adelaide,5000,South Australia,SA
North Adelaide,5006,South Australia,SA
Bowden,5007,South Australia,SA
West Croydon,5008,South Australia,SA
Kilkenny,5009,South Australia,SA
Ferryden Park,5010,South Australia,SA
Woodville South,5011,South Australia,SA
Woodville North,5012,South Australia,SA
Wingfield,5013,South Australia,SA
Alberton (SA),5014,South Australia,SA
Ethelton,5015,South Australia,SA
Largs North,5016,South Australia,SA
Taperoo,5017,South Australia,SA
North Haven (SA),5018,South Australia,SA
Semaphore,5019,South Australia,SA
West Lakes Shore,5020,South Australia,SA
West Lakes,5021,South Australia,SA
Henley Beach South,5022,South Australia,SA
Seaton (SA),5023,South Australia,SA
West Beach (SA),5024,South Australia,SA
Kidman Park,5025,South Australia,SA
Torrensville,5031,South Australia,SA
Underdale,5032,South Australia,SA
Cowandilla,5033,South Australia,SA
Millswood,5034,South Australia,SA
Keswick,5035,South Australia,SA
Glandore,5037,South Australia,SA
Camden Park (SA),5038,South Australia,SA
Melrose Park (SA),5039,South Australia,SA
Novar Gardens,5040,South Australia,SA
Westbourne Park,5041,South Australia,SA
Pasadena,5042,South Australia,SA
Mitchell Park (SA),5043,South Australia,SA
Somerton Park,5044,South Australia,SA
Glenelg North,5045,South Australia,SA
Warradale,5046,South Australia,SA
Sturt (SA),5047,South Australia,SA
Dover Gardens,5048,South Australia,SA
Seacliff Park,5049,South Australia,SA
Eden Hills,5050,South Australia,SA
Hawthorndene,5051,South Australia,SA
Belair,5052,South Australia,SA
Unley,5061,South Australia,SA
Torrens Park,5062,South Australia,SA
Parkside (SA),5063,South Australia,SA
Glen Osmond,5064,South Australia,SA
Glenside,5065,South Australia,SA
Burnside (SA),5066,South Australia,SA
Norwood (SA),5067,South Australia,SA
Kensington (SA),5068,South Australia,SA
Maylands (SA),5069,South Australia,SA
Felixstow,5070,South Australia,SA
Skye (SA),5072,South Australia,SA
Hectorville,5073,South Australia,SA
Campbelltown (SA),5074,South Australia,SA
Dernancourt,5075,South Australia,SA
Athelstone,5076,South Australia,SA
Collinswood,5081,South Australia,SA
Prospect (SA),5082,South Australia,SA
Nailsworth,5083,South Australia,SA
Blair Athol (SA),5084,South Australia,SA
Clearview,5085,South Australia,SA
Oakden,5086,South Australia,SA
Windsor Gardens,5087,South Australia,SA
Holden Hill,5088,South Australia,SA
Highbury (SA),5089,South Australia,SA
Hope Valley (SA),5090,South Australia,SA
Banksia Park,5091,South Australia,SA
Modbury Heights,5092,South Australia,SA
Para Vista,5093,South Australia,SA
Dry Creek (SA),5094,South Australia,SA
Pooraka,5095,South Australia,SA
Para Hills,5096,South Australia,SA
St Agnes (SA),5097,South Australia,SA
Ingle Farm,5098,South Australia,SA
Salisbury South,5106,South Australia,SA
Parafield Gardens,5107,South Australia,SA
Salisbury (SA),5108,South Australia,SA
Brahma Lodge,5109,South Australia,SA
Burton (SA),5110,South Australia,SA
Edinburgh,5111,South Australia,SA
Hillbank,5112,South Australia,SA
Elizabeth Downs,5113,South Australia,SA
Smithfield Plains,5114,South Australia,SA
Munno Para,5115,South Australia,SA
Evanston Gardens,5116,South Australia,SA
Angle Vale,5117,South Australia,SA
Gawler East,5118,South Australia,SA
Virginia (SA),5120,South Australia,SA
Eyre,5121,South Australia,SA
Golden Grove,5125,South Australia,SA
Fairview Park,5126,South Australia,SA
Wynn Vale,5127,South Australia,SA
Houghton,5131,South Australia,SA
Paracombe,5132,South Australia,SA
Inglewood (SA),5133,South Australia,SA
Montacute,5134,South Australia,SA
Norton Summit,5136,South Australia,SA
Ashton,5137,South Australia,SA
Basket Range,5138,South Australia,SA
Forest Range,5139,South Australia,SA
Greenhill (SA),5140,South Australia,SA
Summertown,5141,South Australia,SA
Uraidla,5142,South Australia,SA
Carey Gully,5144,South Australia,SA
Leawood Gardens,5150,South Australia,SA
Piccadilly (SA),5151,South Australia,SA
Stirling (SA),5152,South Australia,SA
Scott Creek,5153,South Australia,SA
Aldgate,5154,South Australia,SA
Bridgewater (SA),5155,South Australia,SA
Upper Sturt,5156,South Australia,SA
Kangarilla,5157,South Australia,SA
Hallett Cove,5158,South Australia,SA
Aberfoyle Park,5159,South Australia,SA
Lonsdale,5160,South Australia,SA
Reynella,5161,South Australia,SA
Morphett Vale,5162,South Australia,SA
Hackham West,5163,South Australia,SA
Christie Downs,5164,South Australia,SA
Christies Beach,5165,South Australia,SA
O'Sullivan Beach,5166,South Australia,SA
Port Noarlunga South,5167,South Australia,SA
Noarlunga Downs,5168,South Australia,SA
Seaford (SA),5169,South Australia,SA
Maslin Beach,5170,South Australia,SA
McLaren Vale,5171,South Australia,SA
Willunga,5172,South Australia,SA
Port Willunga,5173,South Australia,SA
Sellicks Beach,5174,South Australia,SA
Meadows,5201,South Australia,SA
Hindmarsh Tiers,5202,South Australia,SA
Tunkalilla,5203,South Australia,SA
Delamere (SA),5204,South Australia,SA
Mount Compass,5210,South Australia,SA
McCracken,5211,South Australia,SA
Port Elliot,5212,South Australia,SA
Middleton (SA),5213,South Australia,SA
Hindmarsh Island,5214,South Australia,SA
Parndana,5220,South Australia,SA
Ballast Head,5221,South Australia,SA
Antechamber Bay,5222,South Australia,SA
Haines,5223,South Australia,SA
Kersbrook,5231,South Australia,SA
Cudlee Creek,5232,South Australia,SA
Forreston,5233,South Australia,SA
Birdwood (SA),5234,South Australia,SA
Cromer (SA),5235,South Australia,SA
Tungkillo,5236,South Australia,SA
Palmer (SA),5237,South Australia,SA
Mannum,5238,South Australia,SA
Lenswood,5240,South Australia,SA
Lobethal,5241,South Australia,SA
Balhannah,5242,South Australia,SA
Oakbank,5243,South Australia,SA
Woodside (SA),5244,South Australia,SA
Hahndorf,5245,South Australia,SA
Littlehampton,5250,South Australia,SA
Mount Barker (SA),5251,South Australia,SA
Nairne,5252,South Australia,SA
Murray Bridge,5253,South Australia,SA
Pallamana,5254,South Australia,SA
Strathalbyn (SA),5255,South Australia,SA
Milang,5256,South Australia,SA
Narrung (SA),5259,South Australia,SA
Tailem Bend,5260,South Australia,SA
Culburra,5261,South Australia,SA
Binnum,5262,South Australia,SA
Coonawarra (SA),5263,South Australia,SA
Meningie,5264,South Australia,SA
Coonalpyn,5265,South Australia,SA
Tintinara,5266,South Australia,SA
Keith,5267,South Australia,SA
Bordertown,5268,South Australia,SA
Custon,5269,South Australia,SA
Mundulla,5270,South Australia,SA
Wrattonbully,5271,South Australia,SA
Lucindale,5272,South Australia,SA
Avenue Range,5273,South Australia,SA
Pinks Beach,5275,South Australia,SA
Robe,5276,South Australia,SA
Penola,5277,South Australia,SA
Kalangadoo,5278,South Australia,SA
Mount Mcintyre,5279,South Australia,SA
Millicent,5280,South Australia,SA
Mount Gambier,5290,South Australia,SA
Glenburnie,5291,South Australia,SA
Jabuk,5301,South Australia,SA
Lameroo,5302,South Australia,SA
Parilla,5303,South Australia,SA
Pinnaroo,5304,South Australia,SA
Wynarka,5306,South Australia,SA
Karoonda,5307,South Australia,SA
Galga,5308,South Australia,SA
Halidon,5309,South Australia,SA
Caliph,5310,South Australia,SA
Alawoona,5311,South Australia,SA
Morgan,5320,South Australia,SA
Cadell,5321,South Australia,SA
Ramco,5322,South Australia,SA
Stockyard Plain,5330,South Australia,SA
Kingston On Murray,5331,South Australia,SA
Moorook,5332,South Australia,SA
Loxton,5333,South Australia,SA
Paringa,5340,South Australia,SA
Renmark,5341,South Australia,SA
Monash (SA),5342,South Australia,SA
Berri,5343,South Australia,SA
Glossop,5344,South Australia,SA
Loveday,5345,South Australia,SA
Cobdogla,5346,South Australia,SA
Sandy Creek (SA),5350,South Australia,SA
Lyndoch,5351,South Australia,SA
Tanunda,5352,South Australia,SA
Cambrai,5353,South Australia,SA
Fisher (SA),5354,South Australia,SA
Nuriootpa,5355,South Australia,SA
Steinfeld,5356,South Australia,SA
McBean Pound,5357,South Australia,SA
Greenock,5360,South Australia,SA
Roseworthy,5371,South Australia,SA
Freeling,5372,South Australia,SA
Kapunda,5373,South Australia,SA
Eudunda,5374,South Australia,SA
Robertstown,5381,South Australia,SA
Wasleys,5400,South Australia,SA
Salter Springs,5401,South Australia,SA
Linwood,5410,South Australia,SA
Tarlee,5411,South Australia,SA
Riverton (SA),5412,South Australia,SA
Waterloo (SA),5413,South Australia,SA
Manoora (SA),5414,South Australia,SA
Mintaro,5415,South Australia,SA
Farrell Flat,5416,South Australia,SA
Burra (SA),5417,South Australia,SA
Collinsville (SA),5418,South Australia,SA
Canowie,5419,South Australia,SA
Canowie Belt,5420,South Australia,SA
Terowie,5421,South Australia,SA
Peterborough (SA),5422,South Australia,SA
Orroroo,5431,South Australia,SA
Carrieton,5432,South Australia,SA
Quorn,5433,South Australia,SA
Hawker (SA),5434,South Australia,SA
Olary,5440,South Australia,SA
Auburn (SA),5451,South Australia,SA
Watervale,5452,South Australia,SA
Clare (SA),5453,South Australia,SA
Euromina,5454,South Australia,SA
Hilltown,5455,South Australia,SA
Owen,5460,South Australia,SA
Balaklava,5461,South Australia,SA
Blyth,5462,South Australia,SA
Brinkworth,5464,South Australia,SA
Yacka,5470,South Australia,SA
Gulnare,5471,South Australia,SA
Georgetown (SA),5472,South Australia,SA
Gladstone (SA),5473,South Australia,SA
Laura (SA),5480,South Australia,SA
Bangor (SA),5481,South Australia,SA
Booleroo Centre,5482,South Australia,SA
Melrose (SA),5483,South Australia,SA
Wilmington,5485,South Australia,SA
Caltowie,5490,South Australia,SA
Jamestown,5491,South Australia,SA
Yongala,5493,South Australia,SA
Port Germein,5495,South Australia,SA
Lower Light,5501,South Australia,SA
Mallala,5502,South Australia,SA
Lochiel (SA),5510,South Australia,SA
Snowtown,5520,South Australia,SA
Redhill,5521,South Australia,SA
Port Broughton,5522,South Australia,SA
Crystal Brook (SA),5523,South Australia,SA
Port Pirie South,5540,South Australia,SA
Bowmans,5550,South Australia,SA
Kainton,5552,South Australia,SA
Kadina,5554,South Australia,SA
Tickera,5555,South Australia,SA
Wallaroo (SA),5556,South Australia,SA
Moonta,5558,South Australia,SA
Bute,5560,South Australia,SA
Price,5570,South Australia,SA
Ardrossan,5571,South Australia,SA
Arthurton,5572,South Australia,SA
Maitland (SA),5573,South Australia,SA
Marion Bay (SA),5575,South Australia,SA
Yorketown,5576,South Australia,SA
The Pines (SA),5577,South Australia,SA
Curramulka,5580,South Australia,SA
Sheaoak Flat,5581,South Australia,SA
Stansbury,5582,South Australia,SA
Edithburgh,5583,South Australia,SA
Whyalla,5600,South Australia,SA
Point Lowly,5601,South Australia,SA
Cowell,5602,South Australia,SA
Hincks,5603,South Australia,SA
Port Neill,5604,South Australia,SA
Tumby Bay,5605,South Australia,SA
Port Lincoln,5606,South Australia,SA
North Shields,5607,South Australia,SA
Whyalla Stuart,5608,South Australia,SA
Whyalla Jenkins,5609,South Australia,SA
Iron Knob,5611,South Australia,SA
Edillilie,5630,South Australia,SA
Cockaleechie,5631,South Australia,SA
Yeelanna,5632,South Australia,SA
Lock,5633,South Australia,SA
Jamieson (SA),5640,South Australia,SA
Kimba,5641,South Australia,SA
Kielpa,5642,South Australia,SA
Warramboo,5650,South Australia,SA
Kyancutta,5651,South Australia,SA
Pygery,5652,South Australia,SA
Yaninee,5653,South Australia,SA
Minnipa,5654,South Australia,SA
Kaldoonera,5655,South Australia,SA
Cungena,5660,South Australia,SA
Wirrulla,5661,South Australia,SA
Elliston,5670,South Australia,SA
Port Kenny,5671,South Australia,SA
Streaky Bay,5680,South Australia,SA
Ceduna,5690,South Australia,SA
Port Augusta,5700,South Australia,SA
Tarcoola,5701,South Australia,SA
Stirling North,5710,South Australia,SA
Yarrah,5713,South Australia,SA
Pandurra,5715,South Australia,SA
Mount Ive,5717,South Australia,SA
Glendambo,5719,South Australia,SA
Pimba,5720,South Australia,SA
Andamooka,5722,South Australia,SA
Coober Pedy,5723,South Australia,SA
Marla,5724,South Australia,SA
Roxby Downs,5725,South Australia,SA
Beltana Station,5730,South Australia,SA
Mount Serle,5731,South Australia,SA
Nepabunna,5732,South Australia,SA
Farina,5733,South Australia,SA
Macumba,5734,South Australia,SA
Adelaide Airport,5950,South Australia,SA
Perth (WA),6000,Western Australia,WA
Northbridge (WA),6003,Western Australia,WA
East Perth,6004,Western Australia,WA
West Perth,6005,Western Australia,WA
North Perth,6006,Western Australia,WA
West Leederville,6007,Western Australia,WA
Shenton Park,6008,Western Australia,WA
Nedlands,6009,Western Australia,WA
Swanbourne,6010,Western Australia,WA
Cottesloe,6011,Western Australia,WA
Mosman Park (WA),6012,Western Australia,WA
Floreat,6014,Western Australia,WA
City Beach,6015,Western Australia,WA
Mount Hawthorn,6016,Western Australia,WA
Osborne Park,6017,Western Australia,WA
Doubleview,6018,Western Australia,WA
Wembley Downs,6019,Western Australia,WA
Sorrento (WA),6020,Western Australia,WA
Stirling (WA),6021,Western Australia,WA
Hamersley,6022,Western Australia,WA
Duncraig,6023,Western Australia,WA
Greenwood (WA),6024,Western Australia,WA
Kallaroo,6025,Western Australia,WA
Kingsley,6026,Western Australia,WA
Beldon,6027,Western Australia,WA
Burns Beach,6028,Western Australia,WA
Trigg,6029,Western Australia,WA
Quinns Rocks,6030,Western Australia,WA
Banksia Grove,6031,Western Australia,WA
Nowergup,6032,Western Australia,WA
Carabooda,6033,Western Australia,WA
Eglinton (WA),6034,Western Australia,WA
Yanchep,6035,Western Australia,WA
Butler (WA),6036,Western Australia,WA
Two Rocks,6037,Western Australia,WA
Alkimos,6038,Western Australia,WA
Guilderton,6041,Western Australia,WA
Seabird,6042,Western Australia,WA
Ledge Point,6043,Western Australia,WA
Lancelin,6044,Western Australia,WA
Mount Lawley,6050,Western Australia,WA
Maylands (WA),6051,Western Australia,WA
Inglewood (WA),6052,Western Australia,WA
Bayswater (WA),6053,Western Australia,WA
Kiara,6054,Western Australia,WA
Brabham,6055,Western Australia,WA
Greenmount (WA),6056,Western Australia,WA
High Wycombe,6057,Western Australia,WA
Forrestfield,6058,Western Australia,WA
Dianella,6059,Western Australia,WA
Tuart Hill,6060,Western Australia,WA
Westminster,6061,Western Australia,WA
Morley,6062,Western Australia,WA
Beechboro,6063,Western Australia,WA
Alexander Heights,6064,Western Australia,WA
Madeley,6065,Western Australia,WA
Ballajura,6066,Western Australia,WA
Cullacabardee,6067,Western Australia,WA
Whiteman,6068,Western Australia,WA
Aveley,6069,Western Australia,WA
Darlington (WA),6070,Western Australia,WA
Hovea,6071,Western Australia,WA
Mahogany Creek,6072,Western Australia,WA
Mundaring,6073,Western Australia,WA
Sawyers Valley,6074,Western Australia,WA
Kalamunda,6076,Western Australia,WA
Gnangara,6077,Western Australia,WA
Mariginiup,6078,Western Australia,WA
Lexia,6079,Western Australia,WA
Stoneville,6081,Western Australia,WA
Mount Helena,6082,Western Australia,WA
Gidgegannup,6083,Western Australia,WA
Lower Chittering,6084,Western Australia,WA
Malaga,6090,Western Australia,WA
Victoria Park,6100,Western Australia,WA
East Victoria Park,6101,Western Australia,WA
St James (WA),6102,Western Australia,WA
Rivervale,6103,Western Australia,WA
Ascot (WA),6104,Western Australia,WA
Perth Airport,6105,Western Australia,WA
Welshpool (WA),6106,Western Australia,WA
Wattle Grove (WA),6107,Western Australia,WA
Thornlie,6108,Western Australia,WA
Maddington,6109,Western Australia,WA
Southern River,6110,Western Australia,WA
Kelmscott,6111,Western Australia,WA
Seville Grove,6112,Western Australia,WA
Oakford,6121,Western Australia,WA
Darling Downs,6122,Western Australia,WA
Mundijong,6123,Western Australia,WA
Jarrahdale,6124,Western Australia,WA
Serpentine (WA),6125,Western Australia,WA
Keysbrook,6126,Western Australia,WA
Parkwood (WA),6147,Western Australia,WA
Shelley (WA),6148,Western Australia,WA
Leeming,6149,Western Australia,WA
Murdoch,6150,Western Australia,WA
South Perth,6151,Western Australia,WA
Como (WA),6152,Western Australia,WA
Ardross,6153,Western Australia,WA
Booragoon,6154,Western Australia,WA
Canning Vale,6155,Western Australia,WA
Willagee,6156,Western Australia,WA
Palmyra (WA),6157,Western Australia,WA
East Fremantle,6158,Western Australia,WA
North Fremantle,6159,Western Australia,WA
Fremantle,6160,Western Australia,WA
Rottnest Island,6161,Western Australia,WA
Beaconsfield (WA),6162,Western Australia,WA
Kardinya,6163,Western Australia,WA
Treeby,6164,Western Australia,WA
Hope Valley (WA),6165,Western Australia,WA
Coogee (WA),6166,Western Australia,WA
Kwinana Beach,6167,Western Australia,WA
Cooloongup,6168,Western Australia,WA
Waikiki,6169,Western Australia,WA
Leda,6170,Western Australia,WA
Baldivis,6171,Western Australia,WA
Port Kennedy,6172,Western Australia,WA
Secret Harbour,6173,Western Australia,WA
Golden Bay,6174,Western Australia,WA
Singleton (WA),6175,Western Australia,WA
Karnup,6176,Western Australia,WA
Lakelands (WA),6180,Western Australia,WA
Stake Hill,6181,Western Australia,WA
Keralup,6182,Western Australia,WA
North Dandalup,6207,Western Australia,WA
South Yunderup,6208,Western Australia,WA
Furnissdale,6209,Western Australia,WA
Mandurah,6210,Western Australia,WA
Dawesville,6211,Western Australia,WA
Teesdale (WA),6213,Western Australia,WA
Coolup,6214,Western Australia,WA
Preston Beach,6215,Western Australia,WA
Yarloop,6218,Western Australia,WA
Cookernup,6219,Western Australia,WA
Harvey,6220,Western Australia,WA
Mornington (WA),6221,Western Australia,WA
Benger,6223,Western Australia,WA
Brunswick (WA),6224,Western Australia,WA
Yourdamung Lake,6225,Western Australia,WA
Roelands,6226,Western Australia,WA
Burekup,6227,Western Australia,WA
Waterloo (WA),6228,Western Australia,WA
Picton (WA),6229,Western Australia,WA
East Bunbury,6230,Western Australia,WA
Eaton (WA),6232,Western Australia,WA
Leschenault,6233,Western Australia,WA
Wellington Forest,6236,Western Australia,WA
Boyanup,6237,Western Australia,WA
Donnybrook (WA),6239,Western Australia,WA
Lowden,6240,Western Australia,WA
Wilga West,6243,Western Australia,WA
Boyup Brook,6244,Western Australia,WA
Kirup,6251,Western Australia,WA
Mullalyup,6252,Western Australia,WA
Balingup,6253,Western Australia,WA
Greenbushes,6254,Western Australia,WA
Bridgetown,6255,Western Australia,WA
Kingston (WA),6256,Western Australia,WA
Upper Warren,6258,Western Australia,WA
Callcup,6260,Western Australia,WA
Boorara Brook,6262,Western Australia,WA
Capel,6271,Western Australia,WA
Scott River East,6275,Western Australia,WA
Reinscourt,6280,Western Australia,WA
Quindalup,6281,Western Australia,WA
Yallingup Siding,6282,Western Australia,WA
Gracetown,6284,Western Australia,WA
Margaret River (WA),6285,Western Australia,WA
Boranup,6286,Western Australia,WA
Scott River,6288,Western Australia,WA
Molloy Island,6290,Western Australia,WA
York,6302,Western Australia,WA
East Beverley,6304,Western Australia,WA
Aldersyde,6306,Western Australia,WA
East Pingelly,6308,Western Australia,WA
Popanyinning,6309,Western Australia,WA
Cuballing,6311,Western Australia,WA
Toolibin,6312,Western Australia,WA
Highbury (WA),6313,Western Australia,WA
Piesseville,6315,Western Australia,WA
Westwood (WA),6316,Western Australia,WA
Datatine,6317,Western Australia,WA
Broomehill West,6318,Western Australia,WA
Tambellup,6320,Western Australia,WA
Cranbrook (WA),6321,Western Australia,WA
Tenterden (WA),6322,Western Australia,WA
Kendenup,6323,Western Australia,WA
Perillup,6324,Western Australia,WA
Narrikup,6326,Western Australia,WA
Redmond West,6327,Western Australia,WA
Cheynes,6328,Western Australia,WA
Albany,6330,Western Australia,WA
Peaceful Bay,6333,Western Australia,WA
Gnowangerup,6335,Western Australia,WA
Ongerup,6336,Western Australia,WA
Jacup,6337,Western Australia,WA
Stirling Range National Park,6338,Western Australia,WA
Nyabing,6341,Western Australia,WA
Pingrup,6343,Western Australia,WA
Jerdacuttup,6346,Western Australia,WA
Hopetoun (WA),6348,Western Australia,WA
Dumbleyung,6350,Western Australia,WA
Moulyinning,6351,Western Australia,WA
Kukerin,6352,Western Australia,WA
Tarin Rock,6353,Western Australia,WA
Lake Biddy,6355,Western Australia,WA
Hatter Hill,6356,Western Australia,WA
Pingaring,6357,Western Australia,WA
Karlgarin,6358,Western Australia,WA
Little Italy,6359,Western Australia,WA
Tincurrin,6361,Western Australia,WA
Dudinin,6363,Western Australia,WA
Kulin,6365,Western Australia,WA
Kondinin,6367,Western Australia,WA
South Kumminin,6368,Western Australia,WA
Narembeen,6369,Western Australia,WA
Wickepin,6370,Western Australia,WA
Yealering,6372,Western Australia,WA
Bullaring,6373,Western Australia,WA
Corrigin,6375,Western Australia,WA
Mount Stirling,6383,Western Australia,WA
Pantapin,6384,Western Australia,WA
Kwolyin,6385,Western Australia,WA
Shackleton,6386,Western Australia,WA
North Bannister,6390,Western Australia,WA
Williams,6391,Western Australia,WA
Darkan,6392,Western Australia,WA
Duranillin,6393,Western Australia,WA
Muradup,6394,Western Australia,WA
Kojonup,6395,Western Australia,WA
Frankland River,6396,Western Australia,WA
Rocky Gully (WA),6397,Western Australia,WA
Broke (WA),6398,Western Australia,WA
Northam,6401,Western Australia,WA
Grass Valley,6403,Western Australia,WA
Meckering,6405,Western Australia,WA
Cunderdin,6407,Western Australia,WA
North Tammin,6409,Western Australia,WA
Kellerberrin,6410,Western Australia,WA
South Doodlakine,6411,Western Australia,WA
North Baandee,6412,Western Australia,WA
Hines Hill,6413,Western Australia,WA
Nangeenan,6414,Western Australia,WA
Merredin,6415,Western Australia,WA
Bruce Rock,6418,Western Australia,WA
Ardath,6419,Western Australia,WA
Cramphorne,6420,Western Australia,WA
South Burracoppin,6421,Western Australia,WA
Walgoolan,6422,Western Australia,WA
Westonia,6423,Western Australia,WA
Bodallin,6424,Western Australia,WA
Moorine Rock,6425,Western Australia,WA
Mount Hampton,6426,Western Australia,WA
Koolyanobbing,6427,Western Australia,WA
Babakin,6428,Western Australia,WA
Coolgardie (WA),6429,Western Australia,WA
Lamington (WA),6430,Western Australia,WA
Warburton (WA),6431,Western Australia,WA
South Boulder,6432,Western Australia,WA
Cundeelee,6434,Western Australia,WA
Menzies (WA),6436,Western Australia,WA
Leinster,6437,Western Australia,WA
Leonora,6438,Western Australia,WA
Laverton (WA),6440,Western Australia,WA
Kambalda West,6442,Western Australia,WA
Widgiemooltha,6443,Western Australia,WA
Salmon Gums,6445,Western Australia,WA
Grass Patch,6446,Western Australia,WA
Scaddan,6447,Western Australia,WA
Gibson,6448,Western Australia,WA
Coomalbidgup,6450,Western Australia,WA
Buraminya,6452,Western Australia,WA
Goomalling,6460,Western Australia,WA
Koomberkine,6461,Western Australia,WA
Minnivale,6462,Western Australia,WA
Benjaberring,6463,Western Australia,WA
Manmanning,6465,Western Australia,WA
Cadoux,6466,Western Australia,WA
Burakin,6467,Western Australia,WA
Goodlands,6468,Western Australia,WA
Kulja,6470,Western Australia,WA
Bimbijy,6472,Western Australia,WA
Wialki,6473,Western Australia,WA
Newcarlbeon,6475,Western Australia,WA
Gabbin,6476,Western Australia,WA
Bencubbin,6477,Western Australia,WA
Bonnie Rock,6479,Western Australia,WA
Nukarni,6480,Western Australia,WA
Bullfinch,6484,Western Australia,WA
Wyalkatchem,6485,Western Australia,WA
Yelbeni,6487,Western Australia,WA
Trayning,6488,Western Australia,WA
Kununoppin,6489,Western Australia,WA
Nungarin,6490,Western Australia,WA
Muchea,6501,Western Australia,WA
Bindoon,6502,Western Australia,WA
Mindarra,6503,Western Australia,WA
Mooliabeenee,6504,Western Australia,WA
Wannamal,6505,Western Australia,WA
Mogumber,6506,Western Australia,WA
Yathroo,6507,Western Australia,WA
Glentromie,6509,Western Australia,WA
Moora (WA),6510,Western Australia,WA
Cervantes,6511,Western Australia,WA
Coomberdale,6512,Western Australia,WA
Gunyidi,6513,Western Australia,WA
Leeman,6514,Western Australia,WA
Eganu,6515,Western Australia,WA
Jurien Bay,6516,Western Australia,WA
Carnamah,6517,Western Australia,WA
Eneabba,6518,Western Australia,WA
Arrowsmith East,6519,Western Australia,WA
Nambung,6521,Western Australia,WA
Mingenew,6522,Western Australia,WA
Yardarino,6525,Western Australia,WA
Walkaway,6528,Western Australia,WA
Sunset Beach,6530,Western Australia,WA
Deepdale,6532,Western Australia,WA
Northampton,6535,Western Australia,WA
Kalbarri,6536,Western Australia,WA
Shark Bay,6537,Western Australia,WA
Chidlow,6556,Western Australia,WA
Wooroloo,6558,Western Australia,WA
Wundowie,6560,Western Australia,WA
Woottating,6562,Western Australia,WA
Clackline,6564,Western Australia,WA
Coondle,6566,Western Australia,WA
Julimar,6567,Western Australia,WA
Wattening,6568,Western Australia,WA
Old Plains,6569,Western Australia,WA
Yerecoin,6571,Western Australia,WA
Piawaning,6572,Western Australia,WA
Gabalong,6574,Western Australia,WA
Miling,6575,Western Australia,WA
Konnongorring,6603,Western Australia,WA
Kondut,6605,Western Australia,WA
East Ballidu,6606,Western Australia,WA
Pithara,6608,Western Australia,WA
Dalwallinu,6609,Western Australia,WA
Wubin,6612,Western Australia,WA
Buntine,6613,Western Australia,WA
Maya,6614,Western Australia,WA
Latham (WA),6616,Western Australia,WA
Perenjori,6620,Western Australia,WA
Morawa,6623,Western Australia,WA
Merkanooka,6625,Western Australia,WA
Canna,6627,Western Australia,WA
Tardun,6628,Western Australia,WA
Mullewa,6630,Western Australia,WA
Pindar,6631,Western Australia,WA
Tenindewa,6632,Western Australia,WA
South Murchison,6635,Western Australia,WA
Mount Magnet,6638,Western Australia,WA
Sandstone,6639,Western Australia,WA
Cue,6640,Western Australia,WA
Meekatharra,6642,Western Australia,WA
Wiluna,6646,Western Australia,WA
East Carnarvon,6701,Western Australia,WA
Gascoyne River,6705,Western Australia,WA
Exmouth,6707,Western Australia,WA
Onslow,6710,Western Australia,WA
Barrow Island,6712,Western Australia,WA
Dampier Archipelago,6713,Western Australia,WA
Maitland (WA),6714,Western Australia,WA
Millstream (WA),6716,Western Australia,WA
Roebourne,6718,Western Australia,WA
Cossack (WA),6720,Western Australia,WA
Port Hedland,6721,Western Australia,WA
South Hedland,6722,Western Australia,WA
Djugun,6725,Western Australia,WA
Cable Beach,6726,Western Australia,WA
Derby (WA),6728,Western Australia,WA
Mitchell Plateau,6740,Western Australia,WA
Warmun,6743,Western Australia,WA
Innawanga,6751,Western Australia,WA
Newman,6753,Western Australia,WA
Paraburdoo,6754,Western Australia,WA
Nullagine,6758,Western Australia,WA
Marble Bar,6760,Western Australia,WA
Telfer,6762,Western Australia,WA
Fitzroy Crossing,6765,Western Australia,WA
Halls Creek (WA),6770,Western Australia,WA
Christmas Island,6798,Other Territories,
Home Island,6799,Other Territories,
Hobart,7000,Tasmania,TAS
South Hobart,7004,Tasmania,TAS
Sandy Bay,7005,Tasmania,TAS
Mount Nelson,7007,Tasmania,TAS
New Town (Tas.),7008,Tasmania,TAS
Moonah,7009,Tasmania,TAS
Glenorchy (Tas.),7010,Tasmania,TAS
Chigwell,7011,Tasmania,TAS
Collinsvale,7012,Tasmania,TAS
Lindisfarne,7015,Tasmania,TAS
Risdon Vale,7016,Tasmania,TAS
Old Beach,7017,Tasmania,TAS
Howrah,7018,Tasmania,TAS
Rokeby (Tas.),7019,Tasmania,TAS
Sandford (Tas.),7020,Tasmania,TAS
Lauderdale,7021,Tasmania,TAS
South Arm (Tas.),7022,Tasmania,TAS
Opossum Bay,7023,Tasmania,TAS
Cremorne (Tas.),7024,Tasmania,TAS
Richmond (Tas.),7025,Tasmania,TAS
Campania,7026,Tasmania,TAS
Colebrook,7027,Tasmania,TAS
Brighton (Tas.),7030,Tasmania,TAS
Kingston (Tas.),7050,Tasmania,TAS
Blackmans Bay,7052,Tasmania,TAS
Taroona,7053,Tasmania,TAS
Margate (Tas.),7054,Tasmania,TAS
Huntingfield,7055,Tasmania,TAS
Mountain River,7109,Tasmania,TAS
Randalls Bay,7112,Tasmania,TAS
Franklin (Tas.),7113,Tasmania,TAS
Southwest,7116,Tasmania,TAS
Dover,7117,Tasmania,TAS
Stonor,7119,Tasmania,TAS
Oatlands (Tas.),7120,Tasmania,TAS
Strathgordon,7139,Tasmania,TAS
Osterley (Tas.),7140,Tasmania,TAS
South Bruny,7150,Tasmania,TAS
Kettering,7155,Tasmania,TAS
Woodbridge (Tas.),7162,Tasmania,TAS
Middleton (Tas.),7163,Tasmania,TAS
Cambridge (Tas.),7170,Tasmania,TAS
Midway Point,7171,Tasmania,TAS
Sorell,7172,Tasmania,TAS
Forcett,7173,Tasmania,TAS
Copping,7174,Tasmania,TAS
Bream Creek,7175,Tasmania,TAS
Kellevie,7176,Tasmania,TAS
Boomer Bay,7177,Tasmania,TAS
Murdunna,7178,Tasmania,TAS
Eaglehawk Neck,7179,Tasmania,TAS
Taranna,7180,Tasmania,TAS
Port Arthur (Tas.),7182,Tasmania,TAS
Highcroft,7183,Tasmania,TAS
Cape Raoul,7184,Tasmania,TAS
Premaydena,7185,Tasmania,TAS
Sloping Main,7186,Tasmania,TAS
Koonya,7187,Tasmania,TAS
Triabunna,7190,Tasmania,TAS
Ross (Tas.),7209,Tasmania,TAS
Campbell Town,7210,Tasmania,TAS
Conara,7211,Tasmania,TAS
Western Junction,7212,Tasmania,TAS
Royal George,7213,Tasmania,TAS
Mathinna,7214,Tasmania,TAS
Bicheno,7215,Tasmania,TAS
The Gardens (Tas.),7216,Tasmania,TAS
Newnham,7248,Tasmania,TAS
Youngtown,7249,Tasmania,TAS
Waverley (Tas.),7250,Tasmania,TAS
Windermere (Tas.),7252,Tasmania,TAS
Low Head,7253,Tasmania,TAS
Golconda,7254,Tasmania,TAS
Leeka,7255,Tasmania,TAS
Pearshape,7256,Tasmania,TAS
Cape Barren Island,7257,Tasmania,TAS
Relbia,7258,Tasmania,TAS
Targa,7259,Tasmania,TAS
Scottsdale,7260,Tasmania,TAS
Branxholm,7261,Tasmania,TAS
Bridport,7262,Tasmania,TAS
Trenah,7263,Tasmania,TAS
South Mount Cameron,7264,Tasmania,TAS
Winnaleah,7265,Tasmania,TAS
Lower Turners Marsh,7267,Tasmania,TAS
Underwood (Tas.),7268,Tasmania,TAS
Beauty Point,7270,Tasmania,TAS
Swan Point,7275,Tasmania,TAS
Gravelly Beach,7276,Tasmania,TAS
Legana,7277,Tasmania,TAS
Hadspen,7290,Tasmania,TAS
Carrick (Tas.),7291,Tasmania,TAS
Selbourne,7292,Tasmania,TAS
Perth (Tas.),7300,Tasmania,TAS
Liffey,7301,Tasmania,TAS
Bracknell,7302,Tasmania,TAS
Westbury (Tas.),7303,Tasmania,TAS
Doctors Point,7304,Tasmania,TAS
Sunnyside (Tas.),7305,Tasmania,TAS
Claude Road,7306,Tasmania,TAS
Port Sorell,7307,Tasmania,TAS
Aberdeen (Tas.),7310,Tasmania,TAS
Gawler (Tas.),7315,Tasmania,TAS
Penguin,7316,Tasmania,TAS
Brooklyn (Tas.),7320,Tasmania,TAS
West Mooreville,7321,Tasmania,TAS
Somerset (Tas.),7322,Tasmania,TAS
Elliott (Tas.),7325,Tasmania,TAS
Woolnorth,7330,Tasmania,TAS
Stanley (Tas.),7331,Tasmania,TAS
Gormanston,7466,Tasmania,TAS
Queenstown (Tas.),7467,Tasmania,TAS
Strahan,7468,Tasmania,TAS
Granville Harbour,7469,Tasmania,TAS
Rosebery (Tas.),7470,Tasmania,TAS
